State,City,Zip,Utility,People served,Contaminant,Utility Measuremnt,EWG HEALTH GUIDELINE,Legal Limit,Units,Contaminant_Factor
VT,Ludlow VT,5001.0,Ludlow Village Water Department,2818,Bromodichloromethane,1.41,0.06,0,ppb,23.5
VT,Ludlow VT,5001.0,Ludlow Village Water Department,2818,Chloroform,2.26,0.4,0,ppb,5.6499999999999995
VT,Ludlow VT,5001.0,Ludlow Village Water Department,2818,Dibromochloromethane,0.938,0.1,0,ppb,9.379999999999999
VT,Ludlow VT,5001.0,Ludlow Village Water Department,2818,Nitrate,0.35,0.14,10,ppm,2.4999999999999996
VT,Ludlow VT,5001.0,Ludlow Village Water Department,2818,Total trihalomethanes (TTHMs)†,5.53,0.15,80,ppb,36.86666666666667
VT,Woodstock VT,5001.0,Woodstock Aqueduct Corporation,2473,Bromodichloromethane,0.65,0.06,0,ppb,10.833333333333334
VT,Woodstock VT,5001.0,Woodstock Aqueduct Corporation,2473,Dibromochloromethane,0.988,0.1,0,ppb,9.879999999999999
VT,Woodstock VT,5001.0,Woodstock Aqueduct Corporation,2473,Nitrate,0.767,0.14,10,ppm,5.478571428571428
VT,Woodstock VT,5001.0,Woodstock Aqueduct Corporation,2473,Radium combined (-226 &amp; -228),0.44,0.05,5,pCi/L,8.799999999999999
VT,Woodstock VT,5001.0,Woodstock Aqueduct Corporation,2473,Total trihalomethanes (TTHMs)†,3.15,0.15,80,ppb,21.0
VT,Woodstock VT,5001.0,Woodstock Aqueduct Corporation,2473,Bromoform,0.488,0.5,0,ppb,0.976
VT,Woodstock VT,5001.0,Woodstock Aqueduct Corporation,2473,Chloroform,0.238,0.4,0,ppb,0.595
VT,Windsor VT,5001.0,Windsor Water Department,2350,Dibromochloromethane,0.3,0.1,0,ppb,2.9999999999999996
VT,Windsor VT,5001.0,Windsor Water Department,2350,Radium combined (-226 &amp; -228),0.24,0.05,5,pCi/L,4.8
VT,Windsor VT,5001.0,Windsor Water Department,2350,Total trihalomethanes (TTHMs)†,1.27,0.15,80,ppb,8.466666666666667
VT,Windsor VT,5001.0,Windsor Water Department,2350,Bromoform,0.538,0.5,0,ppb,1.076
VT,Windsor VT,5001.0,Windsor Water Department,2350,Chloroform,0.125,0.4,0,ppb,0.3125
VT,Windsor VT,5001.0,Windsor Water Department,2350,Nitrate,0.117,0.14,10,ppm,0.8357142857142856
VT,Randolph,5033.0,Armstrongs Mobile Home Park,45,Nitrate,1.52,0.14,10,ppm,10.857142857142856
VT,Waitsfield,5033.0,Chelsea Elderly Housing,68,Radium combined (-226 &amp; -228),0.36,0.05,5,pCi/L,7.199999999999999
VT,Waitsfield,5033.0,Chelsea Elderly Housing,68,Manganese,14.3,100.0,0,ppb,0.14300000000000002
VT,Waitsfield,5033.0,Chelsea Family Housing,44,Bromodichloromethane,0.6,0.06,0,ppb,10.0
VT,Waitsfield,5033.0,Chelsea Family Housing,44,Chloroform,1.0,0.4,0,ppb,2.5
VT,Waitsfield,5033.0,Chelsea Family Housing,44,Radium combined (-226 &amp; -228),0.22,0.05,5,pCi/L,4.3999999999999995
VT,Waitsfield,5033.0,Chelsea Family Housing,44,Total trihalomethanes (TTHMs)†,2.67,0.15,80,ppb,17.8
VT,Waitsfield,5033.0,Chelsea Family Housing,44,Barium,30.0,700.0,2000,ppb,0.04285714285714286
VT,Waitsfield,5033.0,Chelsea Family Housing,44,Dichloroacetic acid,0.333,0.2,0,ppb,1.665
VT,Waitsfield,5033.0,Chelsea Family Housing,44,Xylenes (total),0.233,1800.0,10000,ppb,0.00012944444444444445
VT,East Thetford,5033.0,East Thetford Water Company,250,Bromodichloromethane,0.14,0.06,0,ppb,2.3333333333333335
VT,East Thetford,5033.0,East Thetford Water Company,250,Total trihalomethanes (TTHMs)†,1.18,0.15,80,ppb,7.866666666666666
VT,East Thetford,5033.0,East Thetford Water Company,250,Chloroform,0.33,0.4,0,ppb,0.825
VT,East Thetford,5033.0,East Thetford Water Company,250,Dibromochloromethane,0.06,0.1,0,ppb,0.6
VT,East Thetford,5033.0,East Thetford Water Company,250,Manganese,74.0,100.0,0,ppb,0.74
VT,East Thetford,5033.0,East Thetford Water Company,250,Toluene,3.17,150.0,1000,ppb,0.021133333333333334
VT,East Thetford,5033.0,East Thetford Water Company,250,Bromodichloromethane,0.14,0.06,0,ppb,2.3333333333333335
VT,East Thetford,5033.0,East Thetford Water Company,250,Total trihalomethanes (TTHMs)†,1.18,0.15,80,ppb,7.866666666666666
VT,East Thetford,5033.0,East Thetford Water Company,250,Chloroform,0.33,0.4,0,ppb,0.825
VT,East Thetford,5033.0,East Thetford Water Company,250,Dibromochloromethane,0.06,0.1,0,ppb,0.6
VT,East Thetford,5033.0,East Thetford Water Company,250,Manganese,74.0,100.0,0,ppb,0.74
VT,East Thetford,5033.0,East Thetford Water Company,250,Toluene,3.17,150.0,1000,ppb,0.021133333333333334
VT,Fairlee,5033.0,Fairlee Town Water,967,Radium combined (-226 &amp; -228),2.29,0.05,5,pCi/L,45.8
VT,Fairlee,5033.0,Fairlee Town Water,967,Bromoform,0.0636,0.5,0,ppb,0.1272
VT,Fairlee,5033.0,Fairlee Town Water,967,Dibromochloromethane,0.109,0.1,0,ppb,1.0899999999999999
VT,Fairlee,5033.0,Fairlee Town Water,967,Manganese,194.3,100.0,0,ppb,1.943
VT,Fairlee,5033.0,Fairlee Town Water,967,MTBE,1.05,13.0,0,ppb,0.08076923076923077
VT,Fairlee,5033.0,Fairlee Town Water,967,Total trihalomethanes (TTHMs)†,0.28,0.15,80,ppb,1.866666666666667
VT,East Barre,5033.0,Greenes Mobile Home Park,39,Nitrate,0.204,0.14,10,ppm,1.4571428571428569
VT,Barre,5033.0,Limehurst Mobile Home Park,87,Nitrate,0.552,0.14,10,ppm,3.9428571428571426
VT,Barre,5033.0,Limehurst Mobile Home Park,87,Nitrate and nitrite,0.55,0.14,10,ppm,3.9285714285714284
VT,Barre,5033.0,Limehurst Mobile Home Park,87,Radium combined (-226 &amp; -228),1.57,0.05,5,pCi/L,31.4
VT,Barre,5033.0,Limehurst Mobile Home Park,87,Manganese,10.0,100.0,0,ppb,0.1
VT,Montpelier,5033.0,Mobile Acres Mobile Home Park,252,Nitrate,1.83,0.14,10,ppm,13.071428571428571
VT,Newbury,5033.0,Newbury Village Inc.,480,Bromodichloromethane,2.56,0.06,0,ppb,42.66666666666667
VT,Newbury,5033.0,Newbury Village Inc.,480,Chloroform,37.2,0.4,0,ppb,93.0
VT,Newbury,5033.0,Newbury Village Inc.,480,Dichloroacetic acid,14.4,0.2,0,ppb,72.0
VT,Newbury,5033.0,Newbury Village Inc.,480,Haloacetic acids (HAA5)†,33.8,0.1,60,ppb,337.99999999999994
VT,Newbury,5033.0,Newbury Village Inc.,480,Radium combined (-226 &amp; -228),0.26,0.05,5,pCi/L,5.2
VT,Newbury,5033.0,Newbury Village Inc.,480,Total trihalomethanes (TTHMs)†,49.0,0.15,80,ppb,326.6666666666667
VT,Newbury,5033.0,Newbury Village Inc.,480,Trichloroacetic acid,19.4,0.1,0,ppb,193.99999999999997
VT,Newbury,5033.0,Newbury Village Inc.,480,Barium,20.0,700.0,2000,ppb,0.02857142857142857
VT,Randolph Ctr,5033.0,Randolph Center Water System,1138,Nitrate,1.7,0.14,10,ppm,12.14285714285714
VT,Randolph Ctr,5033.0,Randolph Center Water System,1138,Radium combined (-226 &amp; -228),0.34,0.05,5,pCi/L,6.8
VT,Randolph Ctr,5033.0,Randolph Center Water System,1138,Chloroform,0.05,0.4,0,ppb,0.125
VT,Randolph Ctr,5033.0,Randolph Center Water System,1138,Total trihalomethanes (TTHMs)†,0.0833,0.15,80,ppb,0.5553333333333333
VT,Randolph,5033.0,Randolph Village,2700,Bromodichloromethane,1.51,0.06,0,ppb,25.166666666666668
VT,Randolph,5033.0,Randolph Village,2700,Chloroform,1.82,0.4,0,ppb,4.55
VT,Randolph,5033.0,Randolph Village,2700,Dibromochloromethane,1.21,0.1,0,ppb,12.1
VT,Randolph,5033.0,Randolph Village,2700,Manganese,337.5,100.0,0,ppb,3.375
VT,Randolph,5033.0,Randolph Village,2700,Total trihalomethanes (TTHMs)†,8.4,0.15,80,ppb,56.00000000000001
VT,Randolph,5033.0,Randolph Village,2700,Bromoform,0.5,0.5,0,ppb,1.0
VT,Randolph,5033.0,Randolph Village,2700,Nitrate,0.25,0.14,10,ppm,1.7857142857142856
VT,Thetford Ctr,5033.0,Union Water Company,61,Bromodichloromethane,0.98,0.06,0,ppb,16.333333333333332
VT,Thetford Ctr,5033.0,Union Water Company,61,Chloroform,5.56,0.4,0,ppb,13.899999999999999
VT,Thetford Ctr,5033.0,Union Water Company,61,Haloacetic acids (HAA5)†,1.5,0.1,60,ppb,15.0
VT,Thetford Ctr,5033.0,Union Water Company,61,Radium combined (-226 &amp; -228),0.62,0.05,5,pCi/L,12.399999999999999
VT,Thetford Ctr,5033.0,Union Water Company,61,Total trihalomethanes (TTHMs)†,11.1,0.15,80,ppb,74.0
VT,Thetford Ctr,5033.0,Union Water Company,61,Trichloroacetic acid,1.5,0.1,0,ppb,15.0
VT,Thetford Ctr,5033.0,Union Water Company,61,Dibromochloromethane,0.1,0.1,0,ppb,1.0
VT,Thetford Ctr,5033.0,Union Water Company,61,Nitrate,0.0857,0.14,10,ppm,0.6121428571428571
VT,Washington,5033.0,Washington Fire District,170,Manganese,8.0,100.0,0,ppb,0.08
VT,Trumbull,5033.0,Washington North Mobile Home Park,63,Manganese,17.5,100.0,0,ppb,0.175
VT,Trumbull,5033.0,Washington North Mobile Home Park,63,Radium combined (-226 &amp; -228),0.07,0.05,5,pCi/L,1.4000000000000001
VT,Wells River,5033.0,Wells River Water System,490,Bromodichloromethane,3.41,0.06,0,ppb,56.833333333333336
VT,Wells River,5033.0,Wells River Water System,490,Chloroform,5.03,0.4,0,ppb,12.575
VT,Wells River,5033.0,Wells River Water System,490,Dibromochloromethane,1.61,0.1,0,ppb,16.1
VT,Wells River,5033.0,Wells River Water System,490,Manganese,285.7,100.0,0,ppb,2.8569999999999998
VT,Wells River,5033.0,Wells River Water System,490,Radium combined (-226 &amp; -228),3.38,0.05,5,pCi/L,67.6
VT,Wells River,5033.0,Wells River Water System,490,Total trihalomethanes (TTHMs)†,13.7,0.15,80,ppb,91.33333333333333
VT,Wells River,5033.0,Wells River Water System,490,Nitrate,0.133,0.14,10,ppm,0.95
VT,Wells River,5033.0,Wells River Water System,490,Toluene,0.1,150.0,1000,ppb,0.0006666666666666668
VT,Wilder,5033.0,West Fairlee Mobile Home Park,50,Bromodichloromethane,0.2,0.06,0,ppb,3.3333333333333335
VT,Wilder,5033.0,West Fairlee Mobile Home Park,50,Chloroform,1.68,0.4,0,ppb,4.199999999999999
VT,Wilder,5033.0,West Fairlee Mobile Home Park,50,Total trihalomethanes (TTHMs)†,5.65,0.15,80,ppb,37.66666666666667
VT,Wilder,5033.0,West Fairlee Mobile Home Park,50,Nitrate,0.183,0.14,10,ppm,1.307142857142857
VT,Williamstown,5033.0,Williamstown Water Department,985,Radium combined (-226 &amp; -228),0.54,0.05,5,pCi/L,10.8
VT,Williamstown,5033.0,Williamstown Water Department,985,Radon,585.0,1.5,0,pCi/L,390.0
VT,Williamstown,5033.0,Williamstown Water Department,985,Barium,3.82,700.0,2000,ppb,0.005457142857142857
VT,Williamstown,5033.0,Williamstown Water Department,985,Manganese,37.7,100.0,0,ppb,0.377
VT,Williamstown,5033.0,Williamstown Water Department,985,Nitrate,0.124,0.14,10,ppm,0.8857142857142857
VT,Williamstown,5033.0,Williamstown Water Department,985,Perchlorate,0.00539,1.0,0,ppb,0.00539
VT,Barnet,5042.0,Barnet Fire District #2,205,Bromodichloromethane,1.58,0.06,0,ppb,26.333333333333336
VT,Barnet,5042.0,Barnet Fire District #2,205,Chloroform,2.08,0.4,0,ppb,5.2
VT,Barnet,5042.0,Barnet Fire District #2,205,Dibromochloromethane,1.13,0.1,0,ppb,11.299999999999999
VT,Barnet,5042.0,Barnet Fire District #2,205,Dichloroacetic acid,3.2,0.2,0,ppb,16.0
VT,Barnet,5042.0,Barnet Fire District #2,205,Haloacetic acids (HAA5)†,3.2,0.1,60,ppb,32.0
VT,Barnet,5042.0,Barnet Fire District #2,205,Nitrate,3.4,0.14,10,ppm,24.28571428571428
VT,Barnet,5042.0,Barnet Fire District #2,205,Total trihalomethanes (TTHMs)†,9.9,0.15,80,ppb,66.0
VT,Barnet,5042.0,Barnet Fire District #2,205,Barium,17.5,700.0,2000,ppb,0.025
VT,Barnet,5042.0,Barnet Fire District #2,205,Bromoform,0.22,0.5,0,ppb,0.44
VT,East Burke,5042.0,Burke Fire District 1,142,Nitrate,1.56,0.14,10,ppm,11.142857142857142
VT,East Burke,5042.0,Burke Fire District 1,142,Nitrate and nitrite,2.1,0.14,10,ppm,15.0
VT,East Burke,5042.0,Burke Fire District 1,142,Radium combined (-226 &amp; -228),0.38,0.05,5,pCi/L,7.6
VT,East Burke,5042.0,Burke Fire District 1,142,Total trihalomethanes (TTHMs)†,0.64,0.15,80,ppb,4.266666666666667
VT,East Burke,5042.0,Burke Fire District 1,142,Barium,28.0,700.0,2000,ppb,0.04
VT,East Burke,5042.0,Burke Fire District 1,142,Bromoform,0.253,0.5,0,ppb,0.506
VT,East Burke,5042.0,Burke Fire District 1,142,Chloroform,0.32,0.4,0,ppb,0.7999999999999999
VT,East Burke,5042.0,Burke Fire District 1,142,Dibromochloromethane,0.17,0.1,0,ppb,1.7
VT,Barnet,5042.0,Karme Choling,140,Bromodichloromethane,0.75,0.06,0,ppb,12.5
VT,Barnet,5042.0,Karme Choling,140,Chloroform,2.6,0.4,0,ppb,6.5
VT,Barnet,5042.0,Karme Choling,140,Radium combined (-226 &amp; -228),0.27,0.05,5,pCi/L,5.4
VT,Barnet,5042.0,Karme Choling,140,Total trihalomethanes (TTHMs)†,1.9,0.15,80,ppb,12.666666666666666
VT,Barnet,5042.0,Karme Choling,140,Dibromochloromethane,0.175,0.1,0,ppb,1.7499999999999998
VT,Barnet,5042.0,Karme Choling,140,Manganese,3.0,100.0,0,ppb,0.03
VT,Barnet,5042.0,Karme Choling,140,Nitrate,0.227,0.14,10,ppm,1.6214285714285712
VT,Mcindoe Falls,5042.0,Mcindoe Falls Fire District 3,176,Bromodichloromethane,3.23,0.06,0,ppb,53.833333333333336
VT,Mcindoe Falls,5042.0,Mcindoe Falls Fire District 3,176,Chloroform,47.6,0.4,0,ppb,119.0
VT,Mcindoe Falls,5042.0,Mcindoe Falls Fire District 3,176,Dichloroacetic acid,13.5,0.2,0,ppb,67.5
VT,Mcindoe Falls,5042.0,Mcindoe Falls Fire District 3,176,Haloacetic acids (HAA5)†,42.3,0.1,60,ppb,422.99999999999994
VT,Mcindoe Falls,5042.0,Mcindoe Falls Fire District 3,176,Radium combined (-226 &amp; -228),1.09,0.05,5,pCi/L,21.8
VT,Mcindoe Falls,5042.0,Mcindoe Falls Fire District 3,176,Total trihalomethanes (TTHMs)†,50.0,0.15,80,ppb,333.33333333333337
VT,Mcindoe Falls,5042.0,Mcindoe Falls Fire District 3,176,Trichloroacetic acid,28.2,0.1,0,ppb,282.0
VT,Mcindoe Falls,5042.0,Mcindoe Falls Fire District 3,176,Barium,10.0,700.0,2000,ppb,0.014285714285714285
VT,Mcindoe Falls,5042.0,Mcindoe Falls Fire District 3,176,Hexachlorocyclopentadiene,0.119,2.0,50,ppb,0.0595
VT,Mcindoe Falls,5042.0,Mcindoe Falls Fire District 3,176,Monochloroacetic acid,0.667,53.0,0,ppb,0.012584905660377359
VT,Lyndonville,5042.0,Northeast Kingdom Mobile Home Park,156,Bromodichloromethane,1.7,0.06,0,ppb,28.333333333333332
VT,Lyndonville,5042.0,Northeast Kingdom Mobile Home Park,156,Bromoform,1.77,0.5,0,ppb,3.54
VT,Lyndonville,5042.0,Northeast Kingdom Mobile Home Park,156,Dibromochloromethane,3.03,0.1,0,ppb,30.299999999999997
VT,Lyndonville,5042.0,Northeast Kingdom Mobile Home Park,156,Radium combined (-226 &amp; -228)*,0.5,0.05,5,pCi/L,10.0
VT,Lyndonville,5042.0,Northeast Kingdom Mobile Home Park,156,Total trihalomethanes (TTHMs)†,7.07,0.15,80,ppb,47.13333333333334
VT,Lyndonville,5042.0,Northeast Kingdom Mobile Home Park,156,Barium*,37.0,700.0,2000,ppb,0.05285714285714286
VT,Lyndonville,5042.0,Northeast Kingdom Mobile Home Park,156,Chlorate*,26.8,210.0,0,ppb,0.12761904761904763
VT,Lyndonville,5042.0,Northeast Kingdom Mobile Home Park,156,Chloroform,0.567,0.4,0,ppb,1.4174999999999998
VT,Lyndonville,5042.0,Northeast Kingdom Mobile Home Park,156,Chromium (hexavalent)*,0.0183,0.02,0,ppb,0.915
VT,Lyndonville,5042.0,Northeast Kingdom Mobile Home Park,156,Manganese*,1.11,100.0,0,ppb,0.0111
VT,Lyndonville,5042.0,Northeast Kingdom Mobile Home Park,156,Molybdenum*,1.42,40.0,0,ppb,0.0355
VT,Lyndonville,5042.0,Northeast Kingdom Mobile Home Park,156,Nitrate*,0.2,0.14,10,ppm,1.4285714285714286
VT,Lyndonville,5042.0,Northeast Kingdom Mobile Home Park,156,Strontium*,0.338,1500.0,0,ppb,0.00022533333333333335
VT,East Burke,5042.0,Qburke Mountain Resort LLC,1058,Uranium,2.21,0.43,20,pCi/L,5.1395348837209305
VT,East Burke,5042.0,Qburke Mountain Resort LLC,1058,Nitrate,0.00333,0.14,10,ppm,0.023785714285714285
VT,East Burke,5042.0,Qburke Mountain Resort LLC,1058,Nitrate and nitrite,0.02,0.14,10,ppm,0.14285714285714285
VT,E Ryegate,5042.0,Ryegate Fire District 2,131,Nitrate,0.26,0.14,10,ppm,1.857142857142857
VT,Concord,5042.0,Sheffield Fire District 1,50,Nitrate,0.0333,0.14,10,ppm,0.23785714285714285
VT,St Johnsbury Ctr,5042.0,St. Johnsbury Center F D 1,370,Bromodichloromethane,7.27,0.06,0,ppb,121.16666666666666
VT,St Johnsbury Ctr,5042.0,St. Johnsbury Center F D 1,370,Chloroform,46.2,0.4,0,ppb,115.5
VT,St Johnsbury Ctr,5042.0,St. Johnsbury Center F D 1,370,Chromium (hexavalent)*,0.29,0.02,0,ppb,14.499999999999998
VT,St Johnsbury Ctr,5042.0,St. Johnsbury Center F D 1,370,Dibromochloromethane,0.763,0.1,0,ppb,7.63
VT,St Johnsbury Ctr,5042.0,St. Johnsbury Center F D 1,370,Dichloroacetic acid,18.6,0.2,0,ppb,93.0
VT,St Johnsbury Ctr,5042.0,St. Johnsbury Center F D 1,370,Haloacetic acids (HAA5)†,40.8,0.1,60,ppb,407.99999999999994
VT,St Johnsbury Ctr,5042.0,St. Johnsbury Center F D 1,370,Total trihalomethanes (TTHMs)†,54.2,0.15,80,ppb,361.33333333333337
VT,St Johnsbury Ctr,5042.0,St. Johnsbury Center F D 1,370,Trichloroacetic acid,21.3,0.1,0,ppb,213.0
VT,St Johnsbury Ctr,5042.0,St. Johnsbury Center F D 1,370,Chlorate*,50.0,210.0,0,ppb,0.23809523809523808
VT,St Johnsbury Ctr,5042.0,St. Johnsbury Center F D 1,370,Manganese*,1.92,100.0,0,ppb,0.0192
VT,St Johnsbury Ctr,5042.0,St. Johnsbury Center F D 1,370,Monochloroacetic acid,0.888,53.0,0,ppb,0.016754716981132074
VT,St Johnsbury Ctr,5042.0,St. Johnsbury Center F D 1,370,Nitrate*,0.0333,0.14,10,ppm,0.23785714285714285
VT,St Johnsbury Ctr,5042.0,St. Johnsbury Center F D 1,370,Strontium*,0.0935,1500.0,0,ppb,6.233333333333334e-05
VT,St Johnsbury Ctr,5042.0,St. Johnsbury Center F D 1,370,Vanadium*,0.1,21.0,0,ppb,0.004761904761904762
VT,St Johnsbury,5042.0,St. Johnsbury Water System,5000,Bromodichloromethane,6.76,0.06,0,ppb,112.66666666666667
VT,St Johnsbury,5042.0,St. Johnsbury Water System,5000,Chloroform,40.3,0.4,0,ppb,100.74999999999999
VT,St Johnsbury,5042.0,St. Johnsbury Water System,5000,Chromium (hexavalent),0.29,0.02,0,ppb,14.499999999999998
VT,St Johnsbury,5042.0,St. Johnsbury Water System,5000,Dibromochloromethane,0.735,0.1,0,ppb,7.35
VT,St Johnsbury,5042.0,St. Johnsbury Water System,5000,Dichloroacetic acid,13.7,0.2,0,ppb,68.49999999999999
VT,St Johnsbury,5042.0,St. Johnsbury Water System,5000,Haloacetic acids (HAA5)†,33.3,0.1,60,ppb,332.99999999999994
VT,St Johnsbury,5042.0,St. Johnsbury Water System,5000,Total trihalomethanes (TTHMs)†,52.1,0.15,80,ppb,347.33333333333337
VT,St Johnsbury,5042.0,St. Johnsbury Water System,5000,Trichloroacetic acid,18.9,0.1,0,ppb,188.99999999999997
VT,St Johnsbury,5042.0,St. Johnsbury Water System,5000,Chlorate,50.0,210.0,0,ppb,0.23809523809523808
VT,St Johnsbury,5042.0,St. Johnsbury Water System,5000,Manganese,1.92,100.0,0,ppb,0.0192
VT,St Johnsbury,5042.0,St. Johnsbury Water System,5000,Monochloroacetic acid,0.729,53.0,0,ppb,0.013754716981132075
VT,St Johnsbury,5042.0,St. Johnsbury Water System,5000,Nitrate,0.0333,0.14,10,ppm,0.23785714285714285
VT,St Johnsbury,5042.0,St. Johnsbury Water System,5000,Strontium,0.0935,1500.0,0,ppb,6.233333333333334e-05
VT,St Johnsbury,5042.0,St. Johnsbury Water System,5000,Vanadium,0.1,21.0,0,ppb,0.004761904761904762
VT,Sutton,5042.0,Sutton Water System,185,Bromoform,1.08,0.5,0,ppb,2.16
VT,Sutton,5042.0,Sutton Water System,185,Dibromochloromethane,0.211,0.1,0,ppb,2.11
VT,Sutton,5042.0,Sutton Water System,185,Nitrate,6.96,0.14,10,ppm,49.71428571428571
VT,Sutton,5042.0,Sutton Water System,185,Total trihalomethanes (TTHMs)†,1.23,0.15,80,ppb,8.200000000000001
VT,Sutton,5042.0,Sutton Water System,185,Toluene,0.167,150.0,1000,ppb,0.0011133333333333334
VT,Brattleboro VT,5101.0,Brattleboro Water Department,12200,Bromodichloromethane,3.39,0.06,0,ppb,56.50000000000001
VT,Brattleboro VT,5101.0,Brattleboro Water Department,12200,Chloroform,24.7,0.4,0,ppb,61.74999999999999
VT,Brattleboro VT,5101.0,Brattleboro Water Department,12200,Chromium (hexavalent),0.0742,0.02,0,ppb,3.71
VT,Brattleboro VT,5101.0,Brattleboro Water Department,12200,Dichloroacetic acid,9.59,0.2,0,ppb,47.949999999999996
VT,Brattleboro VT,5101.0,Brattleboro Water Department,12200,Haloacetic acids (HAA5)†,26.9,0.1,60,ppb,268.99999999999994
VT,Brattleboro VT,5101.0,Brattleboro Water Department,12200,Haloacetic acids (HAA9)†,24.1,0.06,0,ppb,401.6666666666667
VT,Brattleboro VT,5101.0,Brattleboro Water Department,12200,Total trihalomethanes (TTHMs)†,30.3,0.15,80,ppb,202.0
VT,Brattleboro VT,5101.0,Brattleboro Water Department,12200,Trichloroacetic acid,17.3,0.1,0,ppb,173.0
VT,Brattleboro VT,5101.0,Brattleboro Water Department,12200,Chlorate,287.4,210.0,0,ppb,1.3685714285714285
VT,Brattleboro VT,5101.0,Brattleboro Water Department,12200,Di(2-ethylhexyl) phthalate,1.23,3.0,6,ppb,0.41
VT,Brattleboro VT,5101.0,Brattleboro Water Department,12200,Dibromochloromethane,0.0426,0.1,0,ppb,0.426
VT,Brattleboro VT,5101.0,Brattleboro Water Department,12200,Manganese,5.84,100.0,0,ppb,0.0584
VT,Brattleboro VT,5101.0,Brattleboro Water Department,12200,Nitrate,0.2,0.14,10,ppm,1.4285714285714286
VT,Brattleboro VT,5101.0,Brattleboro Water Department,12200,Strontium,0.06,1500.0,0,ppb,3.9999999999999996e-05
VT,Brattleboro VT,5101.0,Brattleboro Water Department,12200,Vanadium,0.164,21.0,0,ppb,0.00780952380952381
VT,Stratton Mountain VT,5101.0,Winhall Stratton F D 1,6200,Bromodichloromethane,0.783,0.06,0,ppb,13.05
VT,Stratton Mountain VT,5101.0,Winhall Stratton F D 1,6200,Chloroform,9.0,0.4,0,ppb,22.5
VT,Stratton Mountain VT,5101.0,Winhall Stratton F D 1,6200,Chromium (hexavalent),0.0625,0.02,0,ppb,3.125
VT,Stratton Mountain VT,5101.0,Winhall Stratton F D 1,6200,Total trihalomethanes (TTHMs)†,19.1,0.15,80,ppb,127.33333333333334
VT,Stratton Mountain VT,5101.0,Winhall Stratton F D 1,6200,Barium,44.5,700.0,2000,ppb,0.06357142857142857
VT,Stratton Mountain VT,5101.0,Winhall Stratton F D 1,6200,Chlorate,25.1,210.0,0,ppb,0.11952380952380953
VT,Stratton Mountain VT,5101.0,Winhall Stratton F D 1,6200,Manganese,12.0,100.0,0,ppb,0.12
VT,Stratton Mountain VT,5101.0,Winhall Stratton F D 1,6200,Molybdenum,0.375,40.0,0,ppb,0.009375
VT,Stratton Mountain VT,5101.0,Winhall Stratton F D 1,6200,Nitrate,0.278,0.14,10,ppm,1.9857142857142858
VT,Stratton Mountain VT,5101.0,Winhall Stratton F D 1,6200,Strontium,0.231,1500.0,0,ppb,0.000154
VT,Stratton Mountain VT,5101.0,Winhall Stratton F D 1,6200,Vanadium,0.3,21.0,0,ppb,0.014285714285714285
VT,Bellows Falls VT,5101.0,Bellows Falls Water Department,3700,Bromodichloromethane,2.52,0.06,0,ppb,42.0
VT,Bellows Falls VT,5101.0,Bellows Falls Water Department,3700,Chloroform,32.5,0.4,0,ppb,81.25
VT,Bellows Falls VT,5101.0,Bellows Falls Water Department,3700,Dichloroacetic acid,8.7,0.2,0,ppb,43.49999999999999
VT,Bellows Falls VT,5101.0,Bellows Falls Water Department,3700,Haloacetic acids (HAA5)†,17.2,0.1,60,ppb,171.99999999999997
VT,Bellows Falls VT,5101.0,Bellows Falls Water Department,3700,Radium combined (-226 &amp; -228),0.98,0.05,5,pCi/L,19.599999999999998
VT,Bellows Falls VT,5101.0,Bellows Falls Water Department,3700,Total trihalomethanes (TTHMs)†,36.2,0.15,80,ppb,241.33333333333337
VT,Bellows Falls VT,5101.0,Bellows Falls Water Department,3700,Trichloroacetic acid,8.54,0.1,0,ppb,85.39999999999999
VT,Bellows Falls VT,5101.0,Bellows Falls Water Department,3700,Manganese,1.11,100.0,0,ppb,0.0111
VT,Wilmington VT,5101.0,Chimney Hill,2580,Bromodichloromethane,0.724,0.06,0,ppb,12.066666666666666
VT,Wilmington VT,5101.0,Chimney Hill,2580,Chloroform,3.18,0.4,0,ppb,7.95
VT,Wilmington VT,5101.0,Chimney Hill,2580,Dichloroacetic acid,3.74,0.2,0,ppb,18.7
VT,Wilmington VT,5101.0,Chimney Hill,2580,Haloacetic acids (HAA5)†,7.02,0.1,60,ppb,70.19999999999999
VT,Wilmington VT,5101.0,Chimney Hill,2580,Total trihalomethanes (TTHMs)†,7.47,0.15,80,ppb,49.8
VT,Wilmington VT,5101.0,Chimney Hill,2580,Trichloroacetic acid,3.28,0.1,0,ppb,32.8
VT,Wilmington VT,5101.0,Chimney Hill,2580,Bromoform,0.056,0.5,0,ppb,0.112
VT,Wilmington VT,5101.0,Chimney Hill,2580,Dibromochloromethane,0.108,0.1,0,ppb,1.0799999999999998
VT,Wilmington VT,5101.0,Chimney Hill,2580,Manganese,9.2,100.0,0,ppb,0.092
VT,Wilmington VT,5101.0,Chimney Hill,2580,Nitrate,0.26,0.14,10,ppm,1.857142857142857
VT,Wilmington VT,5101.0,Chimney Hill,2580,Radium combined (-226 &amp; -228),0.03,0.05,5,pCi/L,0.6
VT,Wilmington VT,5101.0,Chimney Hill,2580,Xylenes (total),0.1,1800.0,10000,ppb,5.555555555555556e-05
VT,Arlington,5152.0,Arlington Water Department,1250,Haloacetic acids (HAA5)†,1.55,0.1,60,ppb,15.5
VT,Arlington,5152.0,Arlington Water Department,1250,Nitrate,3.82,0.14,10,ppm,27.28571428571428
VT,Arlington,5152.0,Arlington Water Department,1250,Nitrate and nitrite,3.8,0.14,10,ppm,27.14285714285714
VT,Arlington,5152.0,Arlington Water Department,1250,Radium combined (-226 &amp; -228),1.57,0.05,5,pCi/L,31.4
VT,Arlington,5152.0,Arlington Water Department,1250,Total trihalomethanes (TTHMs)†,9.52,0.15,80,ppb,63.46666666666667
VT,Arlington,5152.0,Arlington Water Department,1250,Barium,25.5,700.0,2000,ppb,0.03642857142857143
VT,East Arlington,5152.0,Bennington College,1000,Bromodichloromethane,1.01,0.06,0,ppb,16.833333333333336
VT,East Arlington,5152.0,Bennington College,1000,Chloroform,36.7,0.4,0,ppb,91.75
VT,East Arlington,5152.0,Bennington College,1000,Dichloroacetic acid,13.4,0.2,0,ppb,67.0
VT,East Arlington,5152.0,Bennington College,1000,Haloacetic acids (HAA5)†,29.7,0.1,60,ppb,297.0
VT,East Arlington,5152.0,Bennington College,1000,Nitrate*,0.45,0.14,10,ppm,3.214285714285714
VT,East Arlington,5152.0,Bennington College,1000,Total trihalomethanes (TTHMs)†,37.7,0.15,80,ppb,251.33333333333337
VT,East Arlington,5152.0,Bennington College,1000,Trichloroacetic acid,15.0,0.1,0,ppb,150.0
VT,East Arlington,5152.0,Bennington College,1000,Monochloroacetic acid,1.33,53.0,0,ppb,0.02509433962264151
VT,Bennington,5152.0,Bennington Water Department,13250,Bromoform,0.18,0.5,0,ppb,0.36
VT,Bennington,5152.0,Bennington Water Department,13250,Dibromochloromethane,0.06,0.1,0,ppb,0.6
VT,Bennington,5152.0,Bennington Water Department,13250,Manganese,6.0,100.0,0,ppb,0.06
VT,Bennington,5152.0,Bennington Water Department,13250,Total trihalomethanes (TTHMs)†,0.24,0.15,80,ppb,1.6
VT,Tunbridge,5152.0,Dorset Community Housing,50,Nitrate,1.27,0.14,10,ppm,9.071428571428571
VT,Tunbridge,5152.0,Dorset Community Housing,50,Chloroform,0.3,0.4,0,ppb,0.7499999999999999
VT,Dorset,5152.0,Dorset Fire District 1,530,Bromodichloromethane,0.55,0.06,0,ppb,9.166666666666668
VT,Dorset,5152.0,Dorset Fire District 1,530,Chloroform,1.83,0.4,0,ppb,4.575
VT,Dorset,5152.0,Dorset Fire District 1,530,Nitrate,0.4,0.14,10,ppm,2.857142857142857
VT,Dorset,5152.0,Dorset Fire District 1,530,Radium combined (-226 &amp; -228),1.11,0.05,5,pCi/L,22.2
VT,Dorset,5152.0,Dorset Fire District 1,530,Total trihalomethanes (TTHMs)†,2.9,0.15,80,ppb,19.333333333333332
VT,Dorset,5152.0,Dorset Fire District 1,530,Dibromochloromethane,0.133,0.1,0,ppb,1.33
VT,East Dorset,5152.0,East Dorset Fire District 1,192,Bromodichloromethane,1.3,0.06,0,ppb,21.666666666666668
VT,East Dorset,5152.0,East Dorset Fire District 1,192,Chloroform,5.64,0.4,0,ppb,14.099999999999998
VT,East Dorset,5152.0,East Dorset Fire District 1,192,Radium combined (-226 &amp; -228),1.5,0.05,5,pCi/L,30.0
VT,East Dorset,5152.0,East Dorset Fire District 1,192,Total trihalomethanes (TTHMs)†,9.13,0.15,80,ppb,60.866666666666674
VT,East Dorset,5152.0,East Dorset Fire District 1,192,Dibromochloromethane,0.14,0.1,0,ppb,1.4000000000000001
VT,East Dorset,5152.0,East Dorset Fire District 1,192,Nitrate,0.233,0.14,10,ppm,1.6642857142857141
VT,Bennington,5152.0,East Mountain Mobile Home Park,76,Bromodichloromethane,2.23,0.06,0,ppb,37.166666666666664
VT,Bennington,5152.0,East Mountain Mobile Home Park,76,Chloroform,47.9,0.4,0,ppb,119.74999999999999
VT,Bennington,5152.0,East Mountain Mobile Home Park,76,Chromium (hexavalent)*,0.0656,0.02,0,ppb,3.2800000000000002
VT,Bennington,5152.0,East Mountain Mobile Home Park,76,Dichloroacetic acid,1.9,0.2,0,ppb,9.499999999999998
VT,Bennington,5152.0,East Mountain Mobile Home Park,76,Haloacetic acids (HAA5)†,14.0,0.1,60,ppb,140.0
VT,Bennington,5152.0,East Mountain Mobile Home Park,76,Haloacetic acids (HAA9)*†,24.4,0.06,0,ppb,406.6666666666667
VT,Bennington,5152.0,East Mountain Mobile Home Park,76,Radium combined (-226 &amp; -228)*,0.36,0.05,5,pCi/L,7.199999999999999
VT,Bennington,5152.0,East Mountain Mobile Home Park,76,Total trihalomethanes (TTHMs)†,50.3,0.15,80,ppb,335.3333333333333
VT,Bennington,5152.0,East Mountain Mobile Home Park,76,Trichloroacetic acid,12.1,0.1,0,ppb,120.99999999999999
VT,Bennington,5152.0,East Mountain Mobile Home Park,76,11-Dichloroethane*,0.0106,3.0,0,ppb,0.003533333333333333
VT,Bennington,5152.0,East Mountain Mobile Home Park,76,14-Dioxane*,0.0184,0.35,0,ppb,0.052571428571428575
VT,Bennington,5152.0,East Mountain Mobile Home Park,76,Barium*,13.3,700.0,2000,ppb,0.019
VT,Bennington,5152.0,East Mountain Mobile Home Park,76,Chlorate*,82.0,210.0,0,ppb,0.3904761904761905
VT,Bennington,5152.0,East Mountain Mobile Home Park,76,Dibromochloromethane,0.167,0.1,0,ppb,1.67
VT,Bennington,5152.0,East Mountain Mobile Home Park,76,Manganese*,1.38,100.0,0,ppb,0.0138
VT,Bennington,5152.0,East Mountain Mobile Home Park,76,Nitrate*,0.242,0.14,10,ppm,1.7285714285714284
VT,Bennington,5152.0,East Mountain Mobile Home Park,76,Strontium*,0.0237,1500.0,0,ppb,1.5799999999999998e-05
VT,Bennington,5152.0,East Mountain Mobile Home Park,76,Vanadium*,1.08,21.0,0,ppb,0.051428571428571435
VT,Bondville,5152.0,Intervale At Stratton,241,Barium,120.0,700.0,2000,ppb,0.17142857142857143
VT,Bondville,5152.0,Intervale At Stratton,241,Nitrate,0.2,0.14,10,ppm,1.4285714285714286
VT,Stratton Mtn,5152.0,Leisure Lodge Corporation,75,Barium,53.0,700.0,2000,ppb,0.07571428571428572
VT,Stratton Mtn,5152.0,Leisure Lodge Corporation,75,Nitrate,0.0667,0.14,10,ppm,0.47642857142857137
VT,Manchester,5152.0,Ormsby Hill Water System,52,Nitrate,0.352,0.14,10,ppm,2.514285714285714
VT,Manchester,5152.0,Ormsby Hill Water System,52,Radium combined (-226 &amp; -228),1.27,0.05,5,pCi/L,25.4
VT,Pownal,5152.0,Pownal Fire District 2,400,Bromodichloromethane,0.417,0.06,0,ppb,6.95
VT,Pownal,5152.0,Pownal Fire District 2,400,Chloroform,2.52,0.4,0,ppb,6.3
VT,Pownal,5152.0,Pownal Fire District 2,400,Dibromochloromethane,0.217,0.1,0,ppb,2.17
VT,Pownal,5152.0,Pownal Fire District 2,400,Nitrate,0.58,0.14,10,ppm,4.142857142857142
VT,Pownal,5152.0,Pownal Fire District 2,400,Radium combined (-226 &amp; -228),0.64,0.05,5,pCi/L,12.799999999999999
VT,Pownal,5152.0,Pownal Fire District 2,400,Total trihalomethanes (TTHMs)†,3.83,0.15,80,ppb,25.533333333333335
VT,Pownal,5152.0,Pownal Fire District 2,400,Manganese,36.4,100.0,0,ppb,0.364
VT,Pownal,5152.0,Pownal Fire District 2,400,Bromodichloromethane,0.417,0.06,0,ppb,6.95
VT,Pownal,5152.0,Pownal Fire District 2,400,Chloroform,2.52,0.4,0,ppb,6.3
VT,Pownal,5152.0,Pownal Fire District 2,400,Dibromochloromethane,0.217,0.1,0,ppb,2.17
VT,Pownal,5152.0,Pownal Fire District 2,400,Nitrate,0.58,0.14,10,ppm,4.142857142857142
VT,Pownal,5152.0,Pownal Fire District 2,400,Radium combined (-226 &amp; -228),0.64,0.05,5,pCi/L,12.799999999999999
VT,Pownal,5152.0,Pownal Fire District 2,400,Total trihalomethanes (TTHMs)†,3.83,0.15,80,ppb,25.533333333333335
VT,Pownal,5152.0,Pownal Fire District 2,400,Manganese,36.4,100.0,0,ppb,0.364
VT,Pepperell,5152.0,Royal Pine Villa,100,Nitrate,0.298,0.14,10,ppm,2.128571428571428
VT,Pepperell,5152.0,Royal Pine Villa,100,Radium combined (-226 &amp; -228),0.64,0.05,5,pCi/L,12.799999999999999
VT,Pepperell,5152.0,Royal Pine Villa,100,Barium,10.0,700.0,2000,ppb,0.014285714285714285
VT,Pepperell,5152.0,Royal Pine Villa,100,Uranium,0.22,0.43,20,pCi/L,0.5116279069767442
VT,South Burlington VT,5401.0,Champlain Water District,70000,Bromodichloromethane,3.0,0.06,0,ppb,50.0
VT,South Burlington VT,5401.0,Champlain Water District,70000,Chloroform,23.7,0.4,0,ppb,59.24999999999999
VT,South Burlington VT,5401.0,Champlain Water District,70000,Dichloroacetic acid,11.9,0.2,0,ppb,59.5
VT,South Burlington VT,5401.0,Champlain Water District,70000,Haloacetic acids (HAA5)†,23.3,0.1,60,ppb,233.0
VT,South Burlington VT,5401.0,Champlain Water District,70000,Radium combined (-226 &amp; -228),1.1,0.05,5,pCi/L,22.0
VT,South Burlington VT,5401.0,Champlain Water District,70000,Total trihalomethanes (TTHMs)†,26.7,0.15,80,ppb,178.0
VT,South Burlington VT,5401.0,Champlain Water District,70000,Trichloroacetic acid,11.2,0.1,0,ppb,111.99999999999999
VT,South Burlington VT,5401.0,Champlain Water District,70000,Manganese,6.38,100.0,0,ppb,0.0638
VT,South Burlington VT,5401.0,Champlain Water District,70000,Monobromoacetic acid,0.0107,25.0,0,ppb,0.000428
VT,South Burlington VT,5401.0,Champlain Water District,70000,Monochloroacetic acid,0.163,53.0,0,ppb,0.0030754716981132076
VT,Burlington VT,5401.0,Burlington Department Public Works Water Div,42000,Bromodichloromethane,4.57,0.06,0,ppb,76.16666666666667
VT,Burlington VT,5401.0,Burlington Department Public Works Water Div,42000,Chloroform,43.8,0.4,0,ppb,109.49999999999999
VT,Burlington VT,5401.0,Burlington Department Public Works Water Div,42000,Dichloroacetic acid,11.9,0.2,0,ppb,59.5
VT,Burlington VT,5401.0,Burlington Department Public Works Water Div,42000,Haloacetic acids (HAA5)†,34.1,0.1,60,ppb,341.0
VT,Burlington VT,5401.0,Burlington Department Public Works Water Div,42000,Haloacetic acids (HAA9)†,39.0,0.06,0,ppb,650.0
VT,Burlington VT,5401.0,Burlington Department Public Works Water Div,42000,Total trihalomethanes (TTHMs)†,50.8,0.15,80,ppb,338.6666666666667
VT,Burlington VT,5401.0,Burlington Department Public Works Water Div,42000,Trichloroacetic acid,21.6,0.1,0,ppb,216.0
VT,Burlington VT,5401.0,Burlington Department Public Works Water Div,42000,Chlorate,214.9,210.0,0,ppb,1.0233333333333334
VT,Burlington VT,5401.0,Burlington Department Public Works Water Div,42000,Chromium (hexavalent),0.0141,0.02,0,ppb,0.705
VT,Burlington VT,5401.0,Burlington Department Public Works Water Div,42000,Dibromochloromethane,0.0255,0.1,0,ppb,0.25499999999999995
VT,Burlington VT,5401.0,Burlington Department Public Works Water Div,42000,Manganese,8.1,100.0,0,ppb,0.081
VT,Burlington VT,5401.0,Burlington Department Public Works Water Div,42000,Monochloroacetic acid,0.598,53.0,0,ppb,0.011283018867924528
VT,Burlington VT,5401.0,Burlington Department Public Works Water Div,42000,Nitrate,0.242,0.14,10,ppm,1.7285714285714284
VT,Burlington VT,5401.0,Burlington Department Public Works Water Div,42000,Strontium,0.0825,1500.0,0,ppb,5.5e-05
VT,So Burlington VT,5401.0,South Burlington City Water System,15296,Bromodichloromethane*,3.0,0.06,0,ppb,50.0
VT,So Burlington VT,5401.0,South Burlington City Water System,15296,Chloroform*,23.7,0.4,0,ppb,59.24999999999999
VT,So Burlington VT,5401.0,South Burlington City Water System,15296,Chromium (hexavalent),0.0475,0.02,0,ppb,2.375
VT,So Burlington VT,5401.0,South Burlington City Water System,15296,Dichloroacetic acid*,11.9,0.2,0,ppb,59.5
VT,So Burlington VT,5401.0,South Burlington City Water System,15296,Haloacetic acids (HAA5)*†,23.3,0.1,60,ppb,233.0
VT,So Burlington VT,5401.0,South Burlington City Water System,15296,Haloacetic acids (HAA9)†,24.3,0.06,0,ppb,405.0
VT,So Burlington VT,5401.0,South Burlington City Water System,15296,Radium combined (-226 &amp; -228)*,1.1,0.05,5,pCi/L,22.0
VT,So Burlington VT,5401.0,South Burlington City Water System,15296,Total trihalomethanes (TTHMs)*†,26.7,0.15,80,ppb,178.0
VT,So Burlington VT,5401.0,South Burlington City Water System,15296,Trichloroacetic acid*,11.2,0.1,0,ppb,111.99999999999999
VT,So Burlington VT,5401.0,South Burlington City Water System,15296,Chlorate,86.4,210.0,0,ppb,0.4114285714285715
VT,So Burlington VT,5401.0,South Burlington City Water System,15296,Manganese,7.99,100.0,0,ppb,0.0799
VT,So Burlington VT,5401.0,South Burlington City Water System,15296,Monobromoacetic acid*,0.0107,25.0,0,ppb,0.000428
VT,So Burlington VT,5401.0,South Burlington City Water System,15296,Monochloroacetic acid*,0.163,53.0,0,ppb,0.0030754716981132076
VT,So Burlington VT,5401.0,South Burlington City Water System,15296,Strontium,0.0783,1500.0,0,ppb,5.2199999999999995e-05
VT,Essex Junction VT,5401.0,Essex Jct Water Department,9331,Bromodichloromethane*,3.0,0.06,0,ppb,50.0
VT,Essex Junction VT,5401.0,Essex Jct Water Department,9331,Chloroform*,23.7,0.4,0,ppb,59.24999999999999
VT,Essex Junction VT,5401.0,Essex Jct Water Department,9331,Dichloroacetic acid*,11.9,0.2,0,ppb,59.5
VT,Essex Junction VT,5401.0,Essex Jct Water Department,9331,Haloacetic acids (HAA5)*†,23.3,0.1,60,ppb,233.0
VT,Essex Junction VT,5401.0,Essex Jct Water Department,9331,Radium combined (-226 &amp; -228)*,1.1,0.05,5,pCi/L,22.0
VT,Essex Junction VT,5401.0,Essex Jct Water Department,9331,Total trihalomethanes (TTHMs)*†,26.7,0.15,80,ppb,178.0
VT,Essex Junction VT,5401.0,Essex Jct Water Department,9331,Trichloroacetic acid*,11.2,0.1,0,ppb,111.99999999999999
VT,Essex Junction VT,5401.0,Essex Jct Water Department,9331,Manganese*,6.38,100.0,0,ppb,0.0638
VT,Essex Junction VT,5401.0,Essex Jct Water Department,9331,Monobromoacetic acid*,0.0107,25.0,0,ppb,0.000428
VT,Essex Junction VT,5401.0,Essex Jct Water Department,9331,Monochloroacetic acid*,0.163,53.0,0,ppb,0.0030754716981132076
VT,Alburgh,5440.0,Alburgh Fire District 1,87,Bromodichloromethane,6.0,0.06,0,ppb,100.0
VT,Alburgh,5440.0,Alburgh Fire District 1,87,Chloroform,46.6,0.4,0,ppb,116.5
VT,Alburgh,5440.0,Alburgh Fire District 1,87,Dibromochloromethane,0.55,0.1,0,ppb,5.5
VT,Alburgh,5440.0,Alburgh Fire District 1,87,Dichloroacetic acid,22.6,0.2,0,ppb,113.0
VT,Alburgh,5440.0,Alburgh Fire District 1,87,Haloacetic acids (HAA5)†,53.1,0.1,60,ppb,531.0
VT,Alburgh,5440.0,Alburgh Fire District 1,87,Total trihalomethanes (TTHMs)†,50.5,0.15,80,ppb,336.6666666666667
VT,Alburgh,5440.0,Alburgh Fire District 1,87,Trichloroacetic acid,27.2,0.1,0,ppb,272.0
VT,Alburgh,5440.0,Alburgh Fire District 1,87,Barium,36.7,700.0,2000,ppb,0.052428571428571435
VT,Alburgh,5440.0,Alburgh Fire District 1,87,Manganese,47.1,100.0,0,ppb,0.47100000000000003
VT,Alburgh,5440.0,Alburgh Fire District 1,87,Mercury (inorganic),0.1,1.2,2,ppb,0.08333333333333334
VT,Alburgh,5440.0,Alburgh Fire District 1,87,Monochloroacetic acid,3.27,53.0,0,ppb,0.06169811320754717
VT,Alburgh,5440.0,South Alburgh Fire District 2,150,Bromodichloromethane,4.73,0.06,0,ppb,78.83333333333334
VT,Alburgh,5440.0,South Alburgh Fire District 2,150,Chloroform,50.1,0.4,0,ppb,125.25
VT,Alburgh,5440.0,South Alburgh Fire District 2,150,Dichloroacetic acid,3.45,0.2,0,ppb,17.25
VT,Alburgh,5440.0,South Alburgh Fire District 2,150,Haloacetic acids (HAA5)†,16.6,0.1,60,ppb,166.0
VT,Alburgh,5440.0,South Alburgh Fire District 2,150,Radium combined (-226 &amp; -228)*,0.32,0.05,5,pCi/L,6.3999999999999995
VT,Alburgh,5440.0,South Alburgh Fire District 2,150,Total trihalomethanes (TTHMs)†,54.9,0.15,80,ppb,366.0
VT,Alburgh,5440.0,South Alburgh Fire District 2,150,Trichloroacetic acid,13.1,0.1,0,ppb,131.0
VT,Alburgh,5440.0,South Alburgh Fire District 2,150,Nitrate*,0.187,0.14,10,ppm,1.3357142857142856
VT,Alburgh,5440.0,Alburgh Village Water System,576,Bromodichloromethane,3.03,0.06,0,ppb,50.5
VT,Alburgh,5440.0,Alburgh Village Water System,576,Chloroform,23.4,0.4,0,ppb,58.49999999999999
VT,Alburgh,5440.0,Alburgh Village Water System,576,Dichloroacetic acid,9.5,0.2,0,ppb,47.5
VT,Alburgh,5440.0,Alburgh Village Water System,576,Haloacetic acids (HAA5)†,21.9,0.1,60,ppb,218.99999999999997
VT,Alburgh,5440.0,Alburgh Village Water System,576,Radium combined (-226 &amp; -228),0.32,0.05,5,pCi/L,6.3999999999999995
VT,Alburgh,5440.0,Alburgh Village Water System,576,Total trihalomethanes (TTHMs)†,31.4,0.15,80,ppb,209.33333333333334
VT,Alburgh,5440.0,Alburgh Village Water System,576,Trichloroacetic acid,12.4,0.1,0,ppb,124.0
VT,Alburgh,5440.0,Alburgh Village Water System,576,Nitrate,0.187,0.14,10,ppm,1.3357142857142856
VT,Grand Isle,5440.0,Grand Isle Consolidated Water District,1493,Bromodichloromethane,4.97,0.06,0,ppb,82.83333333333333
VT,Grand Isle,5440.0,Grand Isle Consolidated Water District,1493,Chloroform,33.8,0.4,0,ppb,84.49999999999999
VT,Grand Isle,5440.0,Grand Isle Consolidated Water District,1493,Dibromochloromethane,0.217,0.1,0,ppb,2.17
VT,Grand Isle,5440.0,Grand Isle Consolidated Water District,1493,Dichloroacetic acid,11.0,0.2,0,ppb,55.0
VT,Grand Isle,5440.0,Grand Isle Consolidated Water District,1493,Haloacetic acids (HAA5)†,28.9,0.1,60,ppb,288.99999999999994
VT,Grand Isle,5440.0,Grand Isle Consolidated Water District,1493,Radium combined (-226 &amp; -228),0.61,0.05,5,pCi/L,12.2
VT,Grand Isle,5440.0,Grand Isle Consolidated Water District,1493,Total trihalomethanes (TTHMs)†,42.5,0.15,80,ppb,283.33333333333337
VT,Grand Isle,5440.0,Grand Isle Consolidated Water District,1493,Trichloroacetic acid,18.4,0.1,0,ppb,183.99999999999997
VT,Grand Isle,5440.0,Grand Isle Consolidated Water District,1493,Nitrate,0.26,0.14,10,ppm,1.857142857142857
VT,Grand Isle,5440.0,Grand Isle Fire District 4,1063,Bromodichloromethane,3.74,0.06,0,ppb,62.333333333333336
VT,Grand Isle,5440.0,Grand Isle Fire District 4,1063,Chloroform,37.3,0.4,0,ppb,93.24999999999999
VT,Grand Isle,5440.0,Grand Isle Fire District 4,1063,Dichloroacetic acid,16.8,0.2,0,ppb,84.0
VT,Grand Isle,5440.0,Grand Isle Fire District 4,1063,Haloacetic acids (HAA5)†,39.8,0.1,60,ppb,397.99999999999994
VT,Grand Isle,5440.0,Grand Isle Fire District 4,1063,Radium combined (-226 &amp; -228),0.72,0.05,5,pCi/L,14.399999999999999
VT,Grand Isle,5440.0,Grand Isle Fire District 4,1063,Total trihalomethanes (TTHMs)†,45.8,0.15,80,ppb,305.3333333333333
VT,Grand Isle,5440.0,Grand Isle Fire District 4,1063,Trichloroacetic acid,22.3,0.1,0,ppb,223.0
VT,Grand Isle,5440.0,Grand Isle Fire District 4,1063,Monochloroacetic acid,0.638,53.0,0,ppb,0.012037735849056604
VT,Grand Isle,5440.0,Grand Isle Fire District 4,1063,Nitrate,0.246,0.14,10,ppm,1.757142857142857
VT,Enosburg Falls,5441.0,Dairy Center,109,Bromodichloromethane,1.14,0.06,0,ppb,19.0
VT,Enosburg Falls,5441.0,Dairy Center,109,Chloroform,3.02,0.4,0,ppb,7.55
VT,Enosburg Falls,5441.0,Dairy Center,109,Total trihalomethanes (TTHMs)†,2.5,0.15,80,ppb,16.666666666666668
VT,Enosburg Falls,5441.0,Dairy Center,109,Uranium,2.35,0.43,20,pCi/L,5.465116279069767
VT,Enosburg Falls,5441.0,Dairy Center,109,Barium,5.0,700.0,2000,ppb,0.007142857142857143
VT,Enosburg Falls,5441.0,Dairy Center,109,Dibromochloromethane,0.12,0.1,0,ppb,1.2
VT,Enosburg Falls,5441.0,Dairy Center,109,Manganese,50.7,100.0,0,ppb,0.507
VT,Enosburg,5441.0,East Berkshire Fire District 1,184,Bromodichloromethane,1.55,0.06,0,ppb,25.833333333333336
VT,Enosburg,5441.0,East Berkshire Fire District 1,184,Chloroform,3.69,0.4,0,ppb,9.225
VT,Enosburg,5441.0,East Berkshire Fire District 1,184,Dibromochloromethane,0.825,0.1,0,ppb,8.249999999999998
VT,Enosburg,5441.0,East Berkshire Fire District 1,184,Dichloroacetic acid,3.27,0.2,0,ppb,16.349999999999998
VT,Enosburg,5441.0,East Berkshire Fire District 1,184,Haloacetic acids (HAA5)†,4.87,0.1,60,ppb,48.699999999999996
VT,Enosburg,5441.0,East Berkshire Fire District 1,184,Nitrate,0.45,0.14,10,ppm,3.214285714285714
VT,Enosburg,5441.0,East Berkshire Fire District 1,184,Radium combined (-226 &amp; -228),2.36,0.05,5,pCi/L,47.199999999999996
VT,Enosburg,5441.0,East Berkshire Fire District 1,184,Total trihalomethanes (TTHMs)†,7.77,0.15,80,ppb,51.8
VT,Enosburg,5441.0,East Berkshire Fire District 1,184,Trichloroacetic acid,1.93,0.1,0,ppb,19.299999999999997
VT,E Fairfield,5441.0,East Fairfield Fire District 1,184,Arsenic,3.0,0.004,10,ppb,750.0
VT,E Fairfield,5441.0,East Fairfield Fire District 1,184,Bromodichloromethane,0.975,0.06,0,ppb,16.25
VT,E Fairfield,5441.0,East Fairfield Fire District 1,184,Chloroform,1.53,0.4,0,ppb,3.8249999999999997
VT,E Fairfield,5441.0,East Fairfield Fire District 1,184,Dibromochloromethane,0.675,0.1,0,ppb,6.75
VT,E Fairfield,5441.0,East Fairfield Fire District 1,184,Dichloroacetic acid,0.5,0.2,0,ppb,2.5
VT,E Fairfield,5441.0,East Fairfield Fire District 1,184,Nitrate,1.88,0.14,10,ppm,13.428571428571427
VT,E Fairfield,5441.0,East Fairfield Fire District 1,184,Radium combined (-226 &amp; -228),0.37,0.05,5,pCi/L,7.3999999999999995
VT,E Fairfield,5441.0,East Fairfield Fire District 1,184,Total trihalomethanes (TTHMs)†,3.5,0.15,80,ppb,23.333333333333336
VT,E Fairfield,5441.0,East Fairfield Fire District 1,184,Arsenic,3.0,0.004,10,ppb,750.0
VT,E Fairfield,5441.0,East Fairfield Fire District 1,184,Bromodichloromethane,0.975,0.06,0,ppb,16.25
VT,E Fairfield,5441.0,East Fairfield Fire District 1,184,Chloroform,1.53,0.4,0,ppb,3.8249999999999997
VT,E Fairfield,5441.0,East Fairfield Fire District 1,184,Dibromochloromethane,0.675,0.1,0,ppb,6.75
VT,E Fairfield,5441.0,East Fairfield Fire District 1,184,Dichloroacetic acid,0.5,0.2,0,ppb,2.5
VT,E Fairfield,5441.0,East Fairfield Fire District 1,184,Nitrate,1.88,0.14,10,ppm,13.428571428571427
VT,E Fairfield,5441.0,East Fairfield Fire District 1,184,Radium combined (-226 &amp; -228),0.37,0.05,5,pCi/L,7.3999999999999995
VT,E Fairfield,5441.0,East Fairfield Fire District 1,184,Total trihalomethanes (TTHMs)†,3.5,0.15,80,ppb,23.333333333333336
VT,Milton,5441.0,Eastfield Condominium Association Inc.,63,Bromodichloromethane,0.575,0.06,0,ppb,9.583333333333332
VT,Milton,5441.0,Eastfield Condominium Association Inc.,63,Total trihalomethanes (TTHMs)†,1.5,0.15,80,ppb,10.0
VT,Milton,5441.0,Eastfield Condominium Association Inc.,63,Chloroform,0.8,0.4,0,ppb,2.0
VT,Enosburg Falls,5441.0,Enosburg Falls Water System,1700,Bromodichloromethane,0.275,0.06,0,ppb,4.583333333333334
VT,Enosburg Falls,5441.0,Enosburg Falls Water System,1700,Chloroform,0.9,0.4,0,ppb,2.25
VT,Enosburg Falls,5441.0,Enosburg Falls Water System,1700,Haloacetic acids (HAA9)†,0.194,0.06,0,ppb,3.2333333333333334
VT,Enosburg Falls,5441.0,Enosburg Falls Water System,1700,Nitrate,1.01,0.14,10,ppm,7.2142857142857135
VT,Enosburg Falls,5441.0,Enosburg Falls Water System,1700,Total trihalomethanes (TTHMs)†,1.02,0.15,80,ppb,6.800000000000001
VT,Enosburg Falls,5441.0,Enosburg Falls Water System,1700,Manganese,184.3,100.0,0,ppb,1.8430000000000002
VT,Fairfax,5441.0,Fairfax Fire District 1,80,Bromodichloromethane,1.06,0.06,0,ppb,17.666666666666668
VT,Fairfax,5441.0,Fairfax Fire District 1,80,Chloroform,1.34,0.4,0,ppb,3.35
VT,Fairfax,5441.0,Fairfax Fire District 1,80,Dibromochloromethane,0.72,0.1,0,ppb,7.199999999999999
VT,Fairfax,5441.0,Fairfax Fire District 1,80,Radium combined (-226 &amp; -228),0.76,0.05,5,pCi/L,15.2
VT,Fairfax,5441.0,Fairfax Fire District 1,80,Total trihalomethanes (TTHMs)†,4.5,0.15,80,ppb,30.0
VT,Fairfax,5441.0,Fairfax Fire District 1,80,Manganese,13.3,100.0,0,ppb,0.133
VT,Fairfax,5441.0,Fairfax Fire District 1,80,Nitrate,0.00933,0.14,10,ppm,0.06664285714285713
VT,Fairfax,5441.0,Fairfax Fire District 1,80,Toluene,0.2,150.0,1000,ppb,0.0013333333333333335
VT,Fairfax,5441.0,Fairfax Heights Water Cooperative,100,Nitrate,1.06,0.14,10,ppm,7.571428571428571
VT,Fairfax,5441.0,Fairfax Heights Water Cooperative,100,Nitrate and nitrite,1.1,0.14,10,ppm,7.857142857142857
VT,Fairfax,5441.0,Fairfax Heights Water Cooperative,100,Uranium,0.67,0.43,20,pCi/L,1.558139534883721
VT,Fairfax,5441.0,Fairfax Water Department,1550,Arsenic,2.2,0.004,10,ppb,550.0
VT,Fairfax,5441.0,Fairfax Water Department,1550,Bromodichloromethane,2.6,0.06,0,ppb,43.333333333333336
VT,Fairfax,5441.0,Fairfax Water Department,1550,Chloroform,5.24,0.4,0,ppb,13.1
VT,Fairfax,5441.0,Fairfax Water Department,1550,Dibromochloromethane,1.42,0.1,0,ppb,14.2
VT,Fairfax,5441.0,Fairfax Water Department,1550,Radium combined (-226 &amp; -228),0.21,0.05,5,pCi/L,4.199999999999999
VT,Fairfax,5441.0,Fairfax Water Department,1550,Total trihalomethanes (TTHMs)†,10.0,0.15,80,ppb,66.66666666666667
VT,Georgia,5441.0,Georgia Station,120,Manganese,12.0,100.0,0,ppb,0.12
VT,Georgia,5441.0,Georgia Station,120,Nitrate,0.0367,0.14,10,ppm,0.2621428571428571
VT,Milton,5441.0,Rhodeside Acres,65,Bromodichloromethane,0.525,0.06,0,ppb,8.75
VT,Milton,5441.0,Rhodeside Acres,65,Bromoform,7.58,0.5,0,ppb,15.16
VT,Milton,5441.0,Rhodeside Acres,65,Dibromoacetic acid,1.5,0.04,0,ppb,37.5
VT,Milton,5441.0,Rhodeside Acres,65,Dibromochloromethane,2.15,0.1,0,ppb,21.499999999999996
VT,Milton,5441.0,Rhodeside Acres,65,Total trihalomethanes (TTHMs)†,12.0,0.15,80,ppb,80.0
VT,Milton,5441.0,Rhodeside Acres,65,Barium,30.0,700.0,2000,ppb,0.04285714285714286
VT,Milton,5441.0,Rhodeside Acres,65,Manganese,7.33,100.0,0,ppb,0.0733
VT,Sheldon,5441.0,Sheldon Water System,480,Bromodichloromethane,0.7,0.06,0,ppb,11.666666666666666
VT,Sheldon,5441.0,Sheldon Water System,480,Dibromochloromethane,0.9,0.1,0,ppb,9.0
VT,Sheldon,5441.0,Sheldon Water System,480,Nitrate,2.87,0.14,10,ppm,20.5
VT,Sheldon,5441.0,Sheldon Water System,480,Nitrate and nitrite,2.86,0.14,10,ppm,20.428571428571427
VT,Sheldon,5441.0,Sheldon Water System,480,Total trihalomethanes (TTHMs)†,4.5,0.15,80,ppb,30.0
VT,Sheldon,5441.0,Sheldon Water System,480,Bromoform,0.2,0.5,0,ppb,0.4
VT,Sheldon,5441.0,Sheldon Water System,480,Chloroform,0.4,0.4,0,ppb,1.0
VT,Georgia,5441.0,South Georgia Fire District,460,Radium combined (-226 &amp; -228),1.98,0.05,5,pCi/L,39.599999999999994
VT,Georgia,5441.0,South Georgia Fire District,460,Uranium,2.29,0.43,20,pCi/L,5.325581395348838
VT,St Albans,5441.0,Sunset Terrace Estates,45,Bromodichloromethane,3.48,0.06,0,ppb,58.0
VT,St Albans,5441.0,Sunset Terrace Estates,45,Chloroform,6.38,0.4,0,ppb,15.95
VT,St Albans,5441.0,Sunset Terrace Estates,45,Dibromochloromethane,1.03,0.1,0,ppb,10.299999999999999
VT,St Albans,5441.0,Sunset Terrace Estates,45,Dichloroacetic acid,2.7,0.2,0,ppb,13.5
VT,St Albans,5441.0,Sunset Terrace Estates,45,Haloacetic acids (HAA5)†,1.7,0.1,60,ppb,17.0
VT,St Albans,5441.0,Sunset Terrace Estates,45,Nitrate,1.07,0.14,10,ppm,7.642857142857142
VT,St Albans,5441.0,Sunset Terrace Estates,45,Radium combined (-226 &amp; -228),0.44,0.05,5,pCi/L,8.799999999999999
VT,St Albans,5441.0,Sunset Terrace Estates,45,Total trihalomethanes (TTHMs)†,7.7,0.15,80,ppb,51.333333333333336
VT,St Albans,5441.0,Sunset Terrace Estates,45,Trichloroacetic acid,1.0,0.1,0,ppb,10.0
VT,St Albans,5441.0,Sunset Terrace Estates,45,Barium,30.0,700.0,2000,ppb,0.04285714285714286
VT,N Hyde Park,5442.0,Hyde Park Fire District 1,275,Arsenic,2.0,0.004,10,ppb,500.0
VT,Johnson,5442.0,Johnson Village Water Department,1350,Bromodichloromethane,0.711,0.06,0,ppb,11.85
VT,Johnson,5442.0,Johnson Village Water Department,1350,Dibromochloromethane,0.722,0.1,0,ppb,7.22
VT,Johnson,5442.0,Johnson Village Water Department,1350,Nitrate,0.792,0.14,10,ppm,5.657142857142857
VT,Johnson,5442.0,Johnson Village Water Department,1350,Radium combined (-226 &amp; -228),0.72,0.05,5,pCi/L,14.399999999999999
VT,Johnson,5442.0,Johnson Village Water Department,1350,Total trihalomethanes (TTHMs)†,3.7,0.15,80,ppb,24.666666666666668
VT,Johnson,5442.0,Johnson Village Water Department,1350,Barium,11.5,700.0,2000,ppb,0.016428571428571428
VT,Johnson,5442.0,Johnson Village Water Department,1350,Bromoform,0.0889,0.5,0,ppb,0.1778
VT,Johnson,5442.0,Johnson Village Water Department,1350,Chloroform,0.533,0.4,0,ppb,1.3325
VT,Stowe,5442.0,Mansfield View Water Corporation,121,Nitrate,0.45,0.14,10,ppm,3.214285714285714
VT,Stowe,5442.0,Mansfield View Water Corporation,121,Bromoform,0.35,0.5,0,ppb,0.7
VT,Morrisville,5442.0,Morristown Corner Water Corporation,150,Arsenic,2.6,0.004,10,ppb,650.0
VT,Morrisville,5442.0,Morristown Corner Water Corporation,150,Bromodichloromethane,0.625,0.06,0,ppb,10.416666666666668
VT,Morrisville,5442.0,Morristown Corner Water Corporation,150,Dibromochloromethane,0.25,0.1,0,ppb,2.5
VT,Morrisville,5442.0,Morristown Corner Water Corporation,150,Radium combined (-226 &amp; -228),0.22,0.05,5,pCi/L,4.3999999999999995
VT,Morrisville,5442.0,Morristown Corner Water Corporation,150,Total trihalomethanes (TTHMs)†,2.5,0.15,80,ppb,16.666666666666668
VT,Morrisville,5442.0,Morristown Corner Water Corporation,150,Chloroform,0.675,0.4,0,ppb,1.6875
VT,Morrisville,5442.0,Morristown Corner Water Corporation,150,Molybdenum,8.5,40.0,0,ppb,0.2125
VT,Morrisville,5442.0,Morristown Corner Water Corporation,150,Uranium,0.67,0.43,20,pCi/L,1.558139534883721
VT,Morrisville,5442.0,Morrisville Water and Light,2935,Bromodichloromethane,1.22,0.06,0,ppb,20.333333333333332
VT,Morrisville,5442.0,Morrisville Water and Light,2935,Chloroform,1.62,0.4,0,ppb,4.05
VT,Morrisville,5442.0,Morrisville Water and Light,2935,Dibromochloromethane,0.75,0.1,0,ppb,7.5
VT,Morrisville,5442.0,Morrisville Water and Light,2935,Nitrate,1.67,0.14,10,ppm,11.928571428571427
VT,Morrisville,5442.0,Morrisville Water and Light,2935,Total trihalomethanes (TTHMs)†,5.5,0.15,80,ppb,36.66666666666667
VT,Stowe,5442.0,Mountainside Resort,240,Bromodichloromethane,0.82,0.06,0,ppb,13.666666666666666
VT,Stowe,5442.0,Mountainside Resort,240,Bromoform,3.9,0.5,0,ppb,7.8
VT,Stowe,5442.0,Mountainside Resort,240,Dibromoacetic acid,1.13,0.04,0,ppb,28.249999999999996
VT,Stowe,5442.0,Mountainside Resort,240,Dibromochloromethane,3.02,0.1,0,ppb,30.2
VT,Stowe,5442.0,Mountainside Resort,240,Haloacetic acids (HAA5)†,1.13,0.1,60,ppb,11.299999999999999
VT,Stowe,5442.0,Mountainside Resort,240,Nitrate,1.53,0.14,10,ppm,10.928571428571427
VT,Stowe,5442.0,Mountainside Resort,240,Radium combined (-226 &amp; -228),0.77,0.05,5,pCi/L,15.4
VT,Stowe,5442.0,Mountainside Resort,240,Total trihalomethanes (TTHMs)†,7.83,0.15,80,ppb,52.2
VT,Stowe,5442.0,Notchbrook Condominium,201,Bromodichloromethane,3.2,0.06,0,ppb,53.333333333333336
VT,Stowe,5442.0,Notchbrook Condominium,201,Chloroform,12.6,0.4,0,ppb,31.499999999999996
VT,Stowe,5442.0,Notchbrook Condominium,201,Dibromochloromethane,0.842,0.1,0,ppb,8.42
VT,Stowe,5442.0,Notchbrook Condominium,201,Dichloroacetic acid,7.87,0.2,0,ppb,39.35
VT,Stowe,5442.0,Notchbrook Condominium,201,Haloacetic acids (HAA5)†,15.5,0.1,60,ppb,155.0
VT,Stowe,5442.0,Notchbrook Condominium,201,Nitrate,0.33,0.14,10,ppm,2.357142857142857
VT,Stowe,5442.0,Notchbrook Condominium,201,Total trihalomethanes (TTHMs)†,28.5,0.15,80,ppb,190.0
VT,Stowe,5442.0,Notchbrook Condominium,201,Trichloroacetic acid,7.62,0.1,0,ppb,76.2
VT,Stowe,5442.0,Notchbrook III,39,Nitrate,0.362,0.14,10,ppm,2.5857142857142854
VT,South Burlington,5442.0,Pinecrest Mobile Home Park,139,Bromodichloromethane,1.3,0.06,0,ppb,21.666666666666668
VT,South Burlington,5442.0,Pinecrest Mobile Home Park,139,Chloroform,4.26,0.4,0,ppb,10.649999999999999
VT,South Burlington,5442.0,Pinecrest Mobile Home Park,139,Total trihalomethanes (TTHMs)†,6.9,0.15,80,ppb,46.00000000000001
VT,South Burlington,5442.0,Pinecrest Mobile Home Park,139,Dibromochloromethane,0.1,0.1,0,ppb,1.0
VT,South Burlington,5442.0,Pinecrest Mobile Home Park,139,Manganese,4.0,100.0,0,ppb,0.04
VT,South Burlington,5442.0,Pinecrest Mobile Home Park,139,Nitrate,0.0115,0.14,10,ppm,0.08214285714285713
VT,Stowe,5442.0,River Road Apartments,50,Chloroform,0.875,0.4,0,ppb,2.1875
VT,Stowe,5442.0,River Road Apartments,50,Manganese,5.0,100.0,0,ppb,0.05
VT,Morrisville,5442.0,Sterling View Senior Mobile Home Park,290,Radium combined (-226 &amp; -228),1.27,0.05,5,pCi/L,25.4
VT,Morrisville,5442.0,Sterling View Senior Mobile Home Park,290,Manganese,135.0,100.0,0,ppb,1.35
VT,Waterbury,5442.0,Stowe F D 2 Gold Brook Circle,86,Nitrate,0.502,0.14,10,ppm,3.5857142857142854
VT,Waterbury,5442.0,Stowe F D 2 Gold Brook Circle,86,Manganese,31.0,100.0,0,ppb,0.31
VT,Stowe,5442.0,Topnotch,350,Bromodichloromethane,0.8,0.06,0,ppb,13.333333333333334
VT,Stowe,5442.0,Topnotch,350,Dibromochloromethane,0.967,0.1,0,ppb,9.67
VT,Stowe,5442.0,Topnotch,350,Nitrate*,0.345,0.14,10,ppm,2.464285714285714
VT,Stowe,5442.0,Topnotch,350,Radium combined (-226 &amp; -228)*,0.55,0.05,5,pCi/L,11.0
VT,Stowe,5442.0,Topnotch,350,Total trihalomethanes (TTHMs)†,2.63,0.15,80,ppb,17.533333333333335
VT,Stowe,5442.0,Topnotch,350,Bromoform,0.433,0.5,0,ppb,0.866
VT,Stowe,5442.0,Topnotch,350,Chloroform,0.433,0.4,0,ppb,1.0825
VT,Stowe,5442.0,Topnotch,350,Manganese*,5.0,100.0,0,ppb,0.05
VT,Waterville,5442.0,Waterville Fire District 1,84,Nitrate,0.718,0.14,10,ppm,5.128571428571428
VT,Waterville,5442.0,Waterville Fire District 1,84,Radium combined (-226 &amp; -228),0.53,0.05,5,pCi/L,10.6
VT,Waterville,5442.0,Waterville Fire District 1,84,Benzene,0.0939,0.15,5,ppb,0.626
VT,Waterville,5442.0,Waterville Fire District 1,84,Bromodichloromethane,0.0379,0.06,0,ppb,0.6316666666666667
VT,Waterville,5442.0,Waterville Fire District 1,84,Chloroform,0.196,0.4,0,ppb,0.49
VT,Waterville,5442.0,Waterville Fire District 1,84,Chloromethane,0.0258,2.69,0,ppb,0.009591078066914498
VT,Waterville,5442.0,Waterville Fire District 1,84,Ethylbenzene,1.36,300.0,700,ppb,0.004533333333333334
VT,Waterville,5442.0,Waterville Fire District 1,84,Toluene,1.74,150.0,1000,ppb,0.0116
VT,Waterville,5442.0,Waterville Fire District 1,84,Total trihalomethanes (TTHMs)†,0.213,0.15,80,ppb,1.42
VT,Waterville,5442.0,Waterville Fire District 1,84,Xylenes (total),1.83,1800.0,10000,ppb,0.0010166666666666668
VT,Bristol,5443.0,Bristol Water Department,1985,Bromodichloromethane,6.4,0.06,0,ppb,106.66666666666667
VT,Bristol,5443.0,Bristol Water Department,1985,Chloroform,34.1,0.4,0,ppb,85.25
VT,Bristol,5443.0,Bristol Water Department,1985,Chromium (hexavalent),0.0542,0.02,0,ppb,2.71
VT,Bristol,5443.0,Bristol Water Department,1985,Dibromochloromethane,1.09,0.1,0,ppb,10.9
VT,Bristol,5443.0,Bristol Water Department,1985,Dichloroacetic acid,10.4,0.2,0,ppb,52.0
VT,Bristol,5443.0,Bristol Water Department,1985,Haloacetic acids (HAA5)†,27.6,0.1,60,ppb,276.0
VT,Bristol,5443.0,Bristol Water Department,1985,Haloacetic acids (HAA9)†,27.6,0.06,0,ppb,460.00000000000006
VT,Bristol,5443.0,Bristol Water Department,1985,Nitrate,0.674,0.14,10,ppm,4.814285714285714
VT,Bristol,5443.0,Bristol Water Department,1985,Nitrate and nitrite,0.654,0.14,10,ppm,4.671428571428571
VT,Bristol,5443.0,Bristol Water Department,1985,Total trihalomethanes (TTHMs)†,45.8,0.15,80,ppb,305.3333333333333
VT,Bristol,5443.0,Bristol Water Department,1985,Trichloroacetic acid,15.7,0.1,0,ppb,156.99999999999997
VT,Bristol,5443.0,Bristol Water Department,1985,Barium,59.2,700.0,2000,ppb,0.08457142857142858
VT,Bristol,5443.0,Bristol Water Department,1985,Chlorate,72.4,210.0,0,ppb,0.34476190476190477
VT,Bristol,5443.0,Bristol Water Department,1985,Dibromoacetic acid,0.0112,0.04,0,ppb,0.27999999999999997
VT,Bristol,5443.0,Bristol Water Department,1985,Manganese,54.0,100.0,0,ppb,0.54
VT,Bristol,5443.0,Bristol Water Department,1985,Monobromoacetic acid,0.336,25.0,0,ppb,0.01344
VT,Bristol,5443.0,Bristol Water Department,1985,Monochloroacetic acid,1.12,53.0,0,ppb,0.021132075471698115
VT,Bristol,5443.0,Bristol Water Department,1985,Strontium,0.035,1500.0,0,ppb,2.3333333333333336e-05
VT,Bristol,5443.0,Bristol Water Department,1985,Vanadium,0.271,21.0,0,ppb,0.012904761904761905
VT,Vergennes,5443.0,Kilbourn Mobile Home Park,118,Bromodichloromethane,1.1,0.06,0,ppb,18.333333333333336
VT,Vergennes,5443.0,Kilbourn Mobile Home Park,118,Chloroform,2.25,0.4,0,ppb,5.625
VT,Vergennes,5443.0,Kilbourn Mobile Home Park,118,Dibromochloromethane,0.75,0.1,0,ppb,7.5
VT,Vergennes,5443.0,Kilbourn Mobile Home Park,118,Dichloroacetic acid*,2.45,0.2,0,ppb,12.25
VT,Vergennes,5443.0,Kilbourn Mobile Home Park,118,Haloacetic acids (HAA5)*†,2.45,0.1,60,ppb,24.5
VT,Vergennes,5443.0,Kilbourn Mobile Home Park,118,Nitrate*,0.465,0.14,10,ppm,3.321428571428571
VT,Vergennes,5443.0,Kilbourn Mobile Home Park,118,Radium combined (-226 &amp; -228)*,1.44,0.05,5,pCi/L,28.799999999999997
VT,Vergennes,5443.0,Kilbourn Mobile Home Park,118,Total trihalomethanes (TTHMs)†,4.1,0.15,80,ppb,27.333333333333332
VT,Vergennes,5443.0,Lindale Mobile Home Park,179,Bromodichloromethane*,0.4,0.06,0,ppb,6.666666666666667
VT,Vergennes,5443.0,Lindale Mobile Home Park,179,Dibromoacetic acid*,0.167,0.04,0,ppb,4.175
VT,Vergennes,5443.0,Lindale Mobile Home Park,179,Dibromochloromethane*,0.7,0.1,0,ppb,6.999999999999999
VT,Vergennes,5443.0,Lindale Mobile Home Park,179,Nitrate*,0.376,0.14,10,ppm,2.6857142857142855
VT,Vergennes,5443.0,Lindale Mobile Home Park,179,Radium combined (-226 &amp; -228)*,0.47,0.05,5,pCi/L,9.399999999999999
VT,Vergennes,5443.0,Lindale Mobile Home Park,179,Total trihalomethanes (TTHMs)*†,3.35,0.15,80,ppb,22.333333333333336
VT,Vergennes,5443.0,Lindale Mobile Home Park,179,Bromoform*,0.533,0.5,0,ppb,1.066
VT,Vergennes,5443.0,Lindale Mobile Home Park,179,Chloroform*,0.0417,0.4,0,ppb,0.10425
VT,Middlebury,5443.0,Middlebury Water Department,5806,Bromodichloromethane,3.0,0.06,0,ppb,50.0
VT,Middlebury,5443.0,Middlebury Water Department,5806,Chloroform,2.8,0.4,0,ppb,6.999999999999999
VT,Middlebury,5443.0,Middlebury Water Department,5806,Dibromochloromethane,2.05,0.1,0,ppb,20.499999999999996
VT,Middlebury,5443.0,Middlebury Water Department,5806,Haloacetic acids (HAA5)†,10.5,0.1,60,ppb,105.0
VT,Middlebury,5443.0,Middlebury Water Department,5806,Total trihalomethanes (TTHMs)†,39.6,0.15,80,ppb,264.0
VT,Middlebury,5443.0,Middlebury Water Department,5806,Barium,185.0,700.0,2000,ppb,0.2642857142857143
VT,Vergennes,5443.0,Otter Creek Mobile Home Park,180,Bromodichloromethane,4.46,0.06,0,ppb,74.33333333333333
VT,Vergennes,5443.0,Otter Creek Mobile Home Park,180,Chloroform,43.3,0.4,0,ppb,108.24999999999999
VT,Vergennes,5443.0,Otter Creek Mobile Home Park,180,Dichloroacetic acid,19.5,0.2,0,ppb,97.5
VT,Vergennes,5443.0,Otter Creek Mobile Home Park,180,Haloacetic acids (HAA5)†,42.6,0.1,60,ppb,426.0
VT,Vergennes,5443.0,Otter Creek Mobile Home Park,180,Total trihalomethanes (TTHMs)†,47.8,0.15,80,ppb,318.6666666666667
VT,Vergennes,5443.0,Otter Creek Mobile Home Park,180,Trichloroacetic acid,21.2,0.1,0,ppb,211.99999999999997
VT,Vergennes,5443.0,Otter Creek Mobile Home Park,180,Dibromochloromethane*,0.0204,0.1,0,ppb,0.20400000000000001
VT,Vergennes,5443.0,Otter Creek Mobile Home Park,180,Monochloroacetic acid,1.84,53.0,0,ppb,0.034716981132075476
VT,Vergennes,5443.0,Otter Creek Mobile Home Park,180,Nitrate*,0.248,0.14,10,ppm,1.7714285714285714
VT,Starksboro,5443.0,Starksboro Village Water Co-op,350,Radium combined (-226 &amp; -228),0.67,0.05,5,pCi/L,13.4
VT,Starksboro,5443.0,Starksboro Village Water Co-op,350,Nitrate,0.1,0.14,10,ppm,0.7142857142857143
VT,Vergennes,5443.0,Vergennes Panton Water District,5300,Bromodichloromethane,4.89,0.06,0,ppb,81.5
VT,Vergennes,5443.0,Vergennes Panton Water District,5300,Chloroform,46.8,0.4,0,ppb,116.99999999999999
VT,Vergennes,5443.0,Vergennes Panton Water District,5300,Dichloroacetic acid,17.3,0.2,0,ppb,86.5
VT,Vergennes,5443.0,Vergennes Panton Water District,5300,Haloacetic acids (HAA5)†,45.5,0.1,60,ppb,455.0
VT,Vergennes,5443.0,Vergennes Panton Water District,5300,Total trihalomethanes (TTHMs)†,56.7,0.15,80,ppb,378.00000000000006
VT,Vergennes,5443.0,Vergennes Panton Water District,5300,Trichloroacetic acid,26.4,0.1,0,ppb,263.99999999999994
VT,Vergennes,5443.0,Vergennes Panton Water District,5300,Dibromochloromethane,0.0204,0.1,0,ppb,0.20400000000000001
VT,Vergennes,5443.0,Vergennes Panton Water District,5300,Monochloroacetic acid,1.9,53.0,0,ppb,0.035849056603773584
VT,Vergennes,5443.0,Vergennes Panton Water District,5300,Nitrate,0.248,0.14,10,ppm,1.7714285714285714
VT,Winooski VT,5444.0,Winooski Water Department,8500,Bromodichloromethane*,3.0,0.06,0,ppb,50.0
VT,Winooski VT,5444.0,Winooski Water Department,8500,Chloroform*,23.7,0.4,0,ppb,59.24999999999999
VT,Winooski VT,5444.0,Winooski Water Department,8500,Dichloroacetic acid*,11.9,0.2,0,ppb,59.5
VT,Winooski VT,5444.0,Winooski Water Department,8500,Haloacetic acids (HAA5)*†,23.3,0.1,60,ppb,233.0
VT,Winooski VT,5444.0,Winooski Water Department,8500,Haloacetic acids (HAA9)†,28.4,0.06,0,ppb,473.3333333333333
VT,Winooski VT,5444.0,Winooski Water Department,8500,Radium combined (-226 &amp; -228)*,1.1,0.05,5,pCi/L,22.0
VT,Winooski VT,5444.0,Winooski Water Department,8500,Total trihalomethanes (TTHMs)*†,26.7,0.15,80,ppb,178.0
VT,Winooski VT,5444.0,Winooski Water Department,8500,Trichloroacetic acid*,11.2,0.1,0,ppb,111.99999999999999
VT,Winooski VT,5444.0,Winooski Water Department,8500,Manganese,7.31,100.0,0,ppb,0.0731
VT,Winooski VT,5444.0,Winooski Water Department,8500,Monobromoacetic acid*,0.0107,25.0,0,ppb,0.000428
VT,Winooski VT,5444.0,Winooski Water Department,8500,Monochloroacetic acid*,0.163,53.0,0,ppb,0.0030754716981132076
VT,Williston VT,5444.0,Williston Water Department,7690,Bromodichloromethane*,3.0,0.06,0,ppb,50.0
VT,Williston VT,5444.0,Williston Water Department,7690,Chloroform*,23.7,0.4,0,ppb,59.24999999999999
VT,Williston VT,5444.0,Williston Water Department,7690,Dichloroacetic acid*,11.9,0.2,0,ppb,59.5
VT,Williston VT,5444.0,Williston Water Department,7690,Haloacetic acids (HAA5)*†,23.3,0.1,60,ppb,233.0
VT,Williston VT,5444.0,Williston Water Department,7690,Radium combined (-226 &amp; -228)*,1.1,0.05,5,pCi/L,22.0
VT,Williston VT,5444.0,Williston Water Department,7690,Total trihalomethanes (TTHMs)*†,26.7,0.15,80,ppb,178.0
VT,Williston VT,5444.0,Williston Water Department,7690,Trichloroacetic acid*,11.2,0.1,0,ppb,111.99999999999999
VT,Williston VT,5444.0,Williston Water Department,7690,Manganese*,6.38,100.0,0,ppb,0.0638
VT,Williston VT,5444.0,Williston Water Department,7690,Monobromoacetic acid*,0.0107,25.0,0,ppb,0.000428
VT,Williston VT,5444.0,Williston Water Department,7690,Monochloroacetic acid*,0.163,53.0,0,ppb,0.0030754716981132076
VT,Shelburne VT,5444.0,Shelburne Water Department,5764,Bromodichloromethane*,3.0,0.06,0,ppb,50.0
VT,Shelburne VT,5444.0,Shelburne Water Department,5764,Chloroform*,23.7,0.4,0,ppb,59.24999999999999
VT,Shelburne VT,5444.0,Shelburne Water Department,5764,Dichloroacetic acid*,11.9,0.2,0,ppb,59.5
VT,Shelburne VT,5444.0,Shelburne Water Department,5764,Haloacetic acids (HAA5)*†,23.3,0.1,60,ppb,233.0
VT,Shelburne VT,5444.0,Shelburne Water Department,5764,Radium combined (-226 &amp; -228)*,1.1,0.05,5,pCi/L,22.0
VT,Shelburne VT,5444.0,Shelburne Water Department,5764,Total trihalomethanes (TTHMs)*†,26.7,0.15,80,ppb,178.0
VT,Shelburne VT,5444.0,Shelburne Water Department,5764,Trichloroacetic acid*,11.2,0.1,0,ppb,111.99999999999999
VT,Shelburne VT,5444.0,Shelburne Water Department,5764,Manganese*,6.38,100.0,0,ppb,0.0638
VT,Shelburne VT,5444.0,Shelburne Water Department,5764,Monobromoacetic acid*,0.0107,25.0,0,ppb,0.000428
VT,Shelburne VT,5444.0,Shelburne Water Department,5764,Monochloroacetic acid*,0.163,53.0,0,ppb,0.0030754716981132076
VT,Barre VT,5602.0,Barre City Water System,14000,Bromodichloromethane,2.9,0.06,0,ppb,48.333333333333336
VT,Barre VT,5602.0,Barre City Water System,14000,Chloroform,28.6,0.4,0,ppb,71.5
VT,Barre VT,5602.0,Barre City Water System,14000,Chromium (hexavalent),0.0693,0.02,0,ppb,3.465
VT,Barre VT,5602.0,Barre City Water System,14000,Dichloroacetic acid,9.46,0.2,0,ppb,47.300000000000004
VT,Barre VT,5602.0,Barre City Water System,14000,Haloacetic acids (HAA5)†,20.7,0.1,60,ppb,206.99999999999997
VT,Barre VT,5602.0,Barre City Water System,14000,Haloacetic acids (HAA9)†,16.6,0.06,0,ppb,276.6666666666667
VT,Barre VT,5602.0,Barre City Water System,14000,Radium combined (-226 &amp; -228),0.49,0.05,5,pCi/L,9.799999999999999
VT,Barre VT,5602.0,Barre City Water System,14000,Total trihalomethanes (TTHMs)†,32.8,0.15,80,ppb,218.66666666666666
VT,Barre VT,5602.0,Barre City Water System,14000,Trichloroacetic acid,11.2,0.1,0,ppb,111.99999999999999
VT,Barre VT,5602.0,Barre City Water System,14000,Chlorate,383.8,210.0,0,ppb,1.8276190476190477
VT,Barre VT,5602.0,Barre City Water System,14000,Manganese,17.2,100.0,0,ppb,0.172
VT,Barre VT,5602.0,Barre City Water System,14000,Nitrate,0.143,0.14,10,ppm,1.0214285714285714
VT,Barre VT,5602.0,Barre City Water System,14000,Strontium,0.104,1500.0,0,ppb,6.933333333333333e-05
VT,Waterbury VT,5602.0,Edward Farrar Utility District,6003,Bromodichloromethane,1.5,0.06,0,ppb,25.0
VT,Waterbury VT,5602.0,Edward Farrar Utility District,6003,Chloroform,28.9,0.4,0,ppb,72.24999999999999
VT,Waterbury VT,5602.0,Edward Farrar Utility District,6003,Dichloroacetic acid,9.54,0.2,0,ppb,47.699999999999996
VT,Waterbury VT,5602.0,Edward Farrar Utility District,6003,Haloacetic acids (HAA5)†,20.9,0.1,60,ppb,208.99999999999997
VT,Waterbury VT,5602.0,Edward Farrar Utility District,6003,Total trihalomethanes (TTHMs)†,34.3,0.15,80,ppb,228.66666666666666
VT,Waterbury VT,5602.0,Edward Farrar Utility District,6003,Trichloroacetic acid,11.4,0.1,0,ppb,114.0
VT,Waterbury VT,5602.0,Edward Farrar Utility District,6003,Dibromochloromethane,0.00893,0.1,0,ppb,0.0893
VT,Waterbury VT,5602.0,Edward Farrar Utility District,6003,Manganese,15.0,100.0,0,ppb,0.15
VT,Waterbury VT,5602.0,Edward Farrar Utility District,6003,Nitrate,0.25,0.14,10,ppm,1.7857142857142856
VT,Rutland VT,5701.0,Rutland City Water Department,18500,Bromodichloromethane,2.85,0.06,0,ppb,47.5
VT,Rutland VT,5701.0,Rutland City Water Department,18500,Chloroform,33.7,0.4,0,ppb,84.25
VT,Rutland VT,5701.0,Rutland City Water Department,18500,Dichloroacetic acid,18.2,0.2,0,ppb,90.99999999999999
VT,Rutland VT,5701.0,Rutland City Water Department,18500,Haloacetic acids (HAA5)†,47.2,0.1,60,ppb,472.0
VT,Rutland VT,5701.0,Rutland City Water Department,18500,Haloacetic acids (HAA9)†,45.8,0.06,0,ppb,763.3333333333333
VT,Rutland VT,5701.0,Rutland City Water Department,18500,Nitrate and nitrite,0.3,0.14,10,ppm,2.142857142857143
VT,Rutland VT,5701.0,Rutland City Water Department,18500,Total trihalomethanes (TTHMs)†,37.8,0.15,80,ppb,252.0
VT,Rutland VT,5701.0,Rutland City Water Department,18500,Trichloroacetic acid,28.7,0.1,0,ppb,287.0
VT,Rutland VT,5701.0,Rutland City Water Department,18500,Chlorate,239.6,210.0,0,ppb,1.140952380952381
VT,Rutland VT,5701.0,Rutland City Water Department,18500,Chromium (hexavalent),0.0214,0.02,0,ppb,1.0699999999999998
VT,Rutland VT,5701.0,Rutland City Water Department,18500,Monochloroacetic acid,0.24,53.0,0,ppb,0.004528301886792453
VT,Rutland VT,5701.0,Rutland City Water Department,18500,Nitrate,0.28,0.14,10,ppm,2.0
VT,Rutland VT,5701.0,Rutland City Water Department,18500,Strontium,0.0262,1500.0,0,ppb,1.7466666666666667e-05
VT,Brandon VT,5701.0,Brandon Fire District 1,3865,Nitrate,1.1,0.14,10,ppm,7.857142857142857
VT,Fair Haven VT,5701.0,Fair Haven Water Department,3076,Bromodichloromethane,1.92,0.06,0,ppb,32.0
VT,Fair Haven VT,5701.0,Fair Haven Water Department,3076,Chloroform,29.2,0.4,0,ppb,73.0
VT,Fair Haven VT,5701.0,Fair Haven Water Department,3076,Dichloroacetic acid,12.6,0.2,0,ppb,62.99999999999999
VT,Fair Haven VT,5701.0,Fair Haven Water Department,3076,Haloacetic acids (HAA5)†,24.5,0.1,60,ppb,245.0
VT,Fair Haven VT,5701.0,Fair Haven Water Department,3076,Radium combined (-226 &amp; -228),0.67,0.05,5,pCi/L,13.4
VT,Fair Haven VT,5701.0,Fair Haven Water Department,3076,Total trihalomethanes (TTHMs)†,34.3,0.15,80,ppb,228.66666666666666
VT,Fair Haven VT,5701.0,Fair Haven Water Department,3076,Trichloroacetic acid,11.8,0.1,0,ppb,118.0
VT,Fair Haven VT,5701.0,Fair Haven Water Department,3076,Monochloroacetic acid,0.0417,53.0,0,ppb,0.0007867924528301887
VT,West Rutland VT,5701.0,West Rutland Town,2400,Bromodichloromethane,1.7,0.06,0,ppb,28.333333333333332
VT,West Rutland VT,5701.0,West Rutland Town,2400,Chloroform,2.8,0.4,0,ppb,6.999999999999999
VT,West Rutland VT,5701.0,West Rutland Town,2400,Dibromochloromethane,1.08,0.1,0,ppb,10.8
VT,West Rutland VT,5701.0,West Rutland Town,2400,Nitrate,0.413,0.14,10,ppm,2.9499999999999997
VT,West Rutland VT,5701.0,West Rutland Town,2400,Total trihalomethanes (TTHMs)†,5.72,0.15,80,ppb,38.13333333333333
VT,West Rutland VT,5701.0,West Rutland Town,2400,Bromoform,0.0625,0.5,0,ppb,0.125
VT,Poultney VT,5701.0,Poultney Water Department,2400,Nitrate,1.1,0.14,10,ppm,7.857142857142857
VT,Poultney VT,5701.0,Poultney Water Department,2400,Total trihalomethanes (TTHMs)†,1.25,0.15,80,ppb,8.333333333333334
VT,Poultney VT,5701.0,Poultney Water Department,2400,Bromoform,0.62,0.5,0,ppb,1.24
VT,Poultney VT,5701.0,Poultney Water Department,2400,Dibromochloromethane,0.13,0.1,0,ppb,1.3
VT,Proctor VT,5701.0,Proctor Water Department,2000,Bromodichloromethane,0.832,0.06,0,ppb,13.866666666666667
VT,Proctor VT,5701.0,Proctor Water Department,2000,Chloroform,27.1,0.4,0,ppb,67.75
VT,Proctor VT,5701.0,Proctor Water Department,2000,Dibromochloromethane,0.347,0.1,0,ppb,3.4699999999999998
VT,Proctor VT,5701.0,Proctor Water Department,2000,Dichloroacetic acid,8.75,0.2,0,ppb,43.75
VT,Proctor VT,5701.0,Proctor Water Department,2000,Haloacetic acids (HAA5)†,22.7,0.1,60,ppb,226.99999999999997
VT,Proctor VT,5701.0,Proctor Water Department,2000,Nitrate,0.42,0.14,10,ppm,2.9999999999999996
VT,Proctor VT,5701.0,Proctor Water Department,2000,Total trihalomethanes (TTHMs)†,37.3,0.15,80,ppb,248.66666666666666
VT,Proctor VT,5701.0,Proctor Water Department,2000,Trichloroacetic acid,13.4,0.1,0,ppb,134.0
VT,Proctor VT,5701.0,Proctor Water Department,2000,Barium,19.0,700.0,2000,ppb,0.027142857142857142
VT,Proctor VT,5701.0,Proctor Water Department,2000,Manganese,24.5,100.0,0,ppb,0.245
VT,Proctor VT,5701.0,Proctor Water Department,2000,Monochloroacetic acid,0.5,53.0,0,ppb,0.009433962264150943
VT,Castleton VT,5701.0,Castleton Fire District 1,1940,Nitrate,0.638,0.14,10,ppm,4.557142857142857
VT,Castleton VT,5701.0,Castleton Fire District 1,1940,Radium combined (-226 &amp; -228),0.64,0.05,5,pCi/L,12.799999999999999
VT,Castleton VT,5701.0,Castleton Fire District 1,1940,MTBE,0.28,13.0,0,ppb,0.02153846153846154
VT,Pittsford VT,5701.0,Pittsford Florence Water Department,1923,Bromodichloromethane,0.17,0.06,0,ppb,2.8333333333333335
VT,Pittsford VT,5701.0,Pittsford Florence Water Department,1923,Nitrate,0.831,0.14,10,ppm,5.935714285714285
VT,Pittsford VT,5701.0,Pittsford Florence Water Department,1923,Nitrate and nitrite,1.0,0.14,10,ppm,7.142857142857142
VT,Pittsford VT,5701.0,Pittsford Florence Water Department,1923,Total trihalomethanes (TTHMs)†,0.833,0.15,80,ppb,5.553333333333334
VT,Pittsford VT,5701.0,Pittsford Florence Water Department,1923,Barium,7.5,700.0,2000,ppb,0.010714285714285714
VT,Pittsford VT,5701.0,Pittsford Florence Water Department,1923,Chloroform,0.2,0.4,0,ppb,0.5
VT,Pittsford VT,5701.0,Pittsford Florence Water Department,1923,Dibromochloromethane,0.15,0.1,0,ppb,1.4999999999999998
VT,Pittsford VT,5701.0,Pittsford Florence Water Department,1923,Radium combined (-226 &amp; -228),0.09,0.05,5,pCi/L,1.7999999999999998
VT,Woodstock VT,5701.0,Mountain Green Condominium,1300,Bromodichloromethane,1.54,0.06,0,ppb,25.666666666666668
VT,Woodstock VT,5701.0,Mountain Green Condominium,1300,Bromoform,5.41,0.5,0,ppb,10.82
VT,Woodstock VT,5701.0,Mountain Green Condominium,1300,Dibromoacetic acid,3.23,0.04,0,ppb,80.75
VT,Woodstock VT,5701.0,Mountain Green Condominium,1300,Dibromochloromethane,4.06,0.1,0,ppb,40.599999999999994
VT,Woodstock VT,5701.0,Mountain Green Condominium,1300,Haloacetic acids (HAA5)†,3.23,0.1,60,ppb,32.3
VT,Woodstock VT,5701.0,Mountain Green Condominium,1300,Nitrate,0.767,0.14,10,ppm,5.478571428571428
VT,Woodstock VT,5701.0,Mountain Green Condominium,1300,Radium combined (-226 &amp; -228),0.37,0.05,5,pCi/L,7.3999999999999995
VT,Woodstock VT,5701.0,Mountain Green Condominium,1300,Total trihalomethanes (TTHMs)†,17.1,0.15,80,ppb,114.00000000000001
VT,Woodstock VT,5701.0,Mountain Green Condominium,1300,Barium,165.0,700.0,2000,ppb,0.2357142857142857
VT,Woodstock VT,5701.0,Mountain Green Condominium,1300,Chloroform,0.179,0.4,0,ppb,0.44749999999999995
VT,Woodstock VT,5701.0,Mountain Green Condominium,1300,Manganese,10.7,100.0,0,ppb,0.107
VT,Wallingford VT,5701.0,Wallingford Fire District 1,956,Bromodichloromethane,1.13,0.06,0,ppb,18.833333333333332
VT,Wallingford VT,5701.0,Wallingford Fire District 1,956,Chloroform,1.19,0.4,0,ppb,2.9749999999999996
VT,Wallingford VT,5701.0,Wallingford Fire District 1,956,Dibromochloromethane,1.14,0.1,0,ppb,11.399999999999999
VT,Wallingford VT,5701.0,Wallingford Fire District 1,956,Nitrate,1.1,0.14,10,ppm,7.857142857142857
VT,Wallingford VT,5701.0,Wallingford Fire District 1,956,Total trihalomethanes (TTHMs)†,4.57,0.15,80,ppb,30.46666666666667
VT,Wallingford VT,5701.0,Wallingford Fire District 1,956,Bromoform,0.4,0.5,0,ppb,0.8
VT,White River Jct VT,5767.0,Quechee Central,2262,Bromodichloromethane,0.988,0.06,0,ppb,16.46666666666667
VT,White River Jct VT,5767.0,Quechee Central,2262,Dibromochloromethane,0.85,0.1,0,ppb,8.5
VT,White River Jct VT,5767.0,Quechee Central,2262,Nitrate,1.15,0.14,10,ppm,8.214285714285714
VT,White River Jct VT,5767.0,Quechee Central,2262,Total trihalomethanes (TTHMs)†,3.7,0.15,80,ppb,24.666666666666668
VT,White River Jct VT,5767.0,Quechee Central,2262,Bromoform,0.238,0.5,0,ppb,0.476
VT,White River Jct VT,5767.0,Quechee Central,2262,Chloroform,0.7,0.4,0,ppb,1.7499999999999998
VT,Albany,5820.0,Albany Water System,200,Arsenic,1.14,0.004,10,ppb,284.99999999999994
VT,Albany,5820.0,Albany Water System,200,Radium combined (-226 &amp; -228),0.25,0.05,5,pCi/L,5.0
VT,Albany,5820.0,Albany Water System,200,Chloroform,0.6,0.4,0,ppb,1.4999999999999998
VT,Albany,5820.0,Albany Water System,200,Nitrate,0.00177,0.14,10,ppm,0.012642857142857141
VT,Montgomery Ctr,5820.0,Alpine Haven,250,Manganese,40.6,100.0,0,ppb,0.406
VT,Montgomery Ctr,5820.0,Alpine Haven,250,Nitrate,0.00683,0.14,10,ppm,0.04878571428571428
VT,Barton,5820.0,Barton Water System,950,Bromodichloromethane,2.27,0.06,0,ppb,37.833333333333336
VT,Barton,5820.0,Barton Water System,950,Chloroform,47.6,0.4,0,ppb,119.0
VT,Barton,5820.0,Barton Water System,950,Dichloroacetic acid,16.6,0.2,0,ppb,83.0
VT,Barton,5820.0,Barton Water System,950,Haloacetic acids (HAA5)†,43.1,0.1,60,ppb,431.0
VT,Barton,5820.0,Barton Water System,950,Total trihalomethanes (TTHMs)†,55.7,0.15,80,ppb,371.33333333333337
VT,Barton,5820.0,Barton Water System,950,Trichloroacetic acid,26.5,0.1,0,ppb,265.0
VT,Barton,5820.0,Barton Water System,950,Manganese,39.0,100.0,0,ppb,0.39
VT,Barton,5820.0,Barton Water System,950,Nitrate,0.1,0.14,10,ppm,0.7142857142857143
VT,Coventry,5820.0,Coventry Fire District 1,251,Arsenic,8.41,0.004,10,ppb,2102.5
VT,Coventry,5820.0,Coventry Fire District 1,251,Bromodichloromethane,1.58,0.06,0,ppb,26.333333333333336
VT,Coventry,5820.0,Coventry Fire District 1,251,Chloroform,3.28,0.4,0,ppb,8.2
VT,Coventry,5820.0,Coventry Fire District 1,251,Dibromochloromethane,0.85,0.1,0,ppb,8.5
VT,Coventry,5820.0,Coventry Fire District 1,251,Radium combined (-226 &amp; -228),0.99,0.05,5,pCi/L,19.799999999999997
VT,Coventry,5820.0,Coventry Fire District 1,251,Total trihalomethanes (TTHMs)†,8.0,0.15,80,ppb,53.333333333333336
VT,Coventry,5820.0,Coventry Fire District 1,251,Trichloroacetic acid,0.5,0.1,0,ppb,5.0
VT,Coventry,5820.0,Coventry Fire District 1,251,Manganese,62.0,100.0,0,ppb,0.62
VT,Craftsbury Common,5820.0,Craftsbury Fire District 2,420,Nitrate,3.86,0.14,10,ppm,27.57142857142857
VT,Craftsbury Common,5820.0,Craftsbury Fire District 2,420,Nitrate and nitrite,3.48,0.14,10,ppm,24.857142857142854
VT,Craftsbury Common,5820.0,Craftsbury Fire District 2,420,Manganese,84.0,100.0,0,ppb,0.84
VT,Derby,5820.0,Derby Center Water System,1400,Benzo[a]pyrene,0.2,0.007,0.2,ppb,28.571428571428573
VT,Derby,5820.0,Derby Center Water System,1400,Bromodichloromethane,3.53,0.06,0,ppb,58.833333333333336
VT,Derby,5820.0,Derby Center Water System,1400,Chloroform,8.64,0.4,0,ppb,21.6
VT,Derby,5820.0,Derby Center Water System,1400,Dibromochloromethane,1.39,0.1,0,ppb,13.899999999999999
VT,Derby,5820.0,Derby Center Water System,1400,Dichloroacetic acid,2.99,0.2,0,ppb,14.950000000000001
VT,Derby,5820.0,Derby Center Water System,1400,Haloacetic acids (HAA5)†,6.19,0.1,60,ppb,61.9
VT,Derby,5820.0,Derby Center Water System,1400,Nitrate,1.67,0.14,10,ppm,11.928571428571427
VT,Derby,5820.0,Derby Center Water System,1400,Total trihalomethanes (TTHMs)†,14.2,0.15,80,ppb,94.66666666666667
VT,Derby,5820.0,Derby Center Water System,1400,Trichloroacetic acid,3.2,0.1,0,ppb,32.0
VT,Montpelier,5820.0,Derby Mobile Home Park,265,Benzo[a]pyrene*,0.2,0.007,0.2,ppb,28.571428571428573
VT,Montpelier,5820.0,Derby Mobile Home Park,265,Bromodichloromethane,3.68,0.06,0,ppb,61.333333333333336
VT,Montpelier,5820.0,Derby Mobile Home Park,265,Chloroform,9.42,0.4,0,ppb,23.549999999999997
VT,Montpelier,5820.0,Derby Mobile Home Park,265,Dibromochloromethane,1.23,0.1,0,ppb,12.299999999999999
VT,Montpelier,5820.0,Derby Mobile Home Park,265,Dichloroacetic acid,6.1,0.2,0,ppb,30.499999999999996
VT,Montpelier,5820.0,Derby Mobile Home Park,265,Haloacetic acids (HAA5)†,9.62,0.1,60,ppb,96.19999999999999
VT,Montpelier,5820.0,Derby Mobile Home Park,265,Nitrate*,1.67,0.14,10,ppm,11.928571428571427
VT,Montpelier,5820.0,Derby Mobile Home Park,265,Total trihalomethanes (TTHMs)†,14.3,0.15,80,ppb,95.33333333333334
VT,Montpelier,5820.0,Derby Mobile Home Park,265,Trichloroacetic acid,5.67,0.1,0,ppb,56.699999999999996
VT,Greensboro Bend,5820.0,Greensboro Bend Fire District #2,71,Nitrate,1.01,0.14,10,ppm,7.2142857142857135
VT,Greensboro,5820.0,Greensboro Fire District 1,551,Bromodichloromethane,0.233,0.06,0,ppb,3.8833333333333337
VT,Greensboro,5820.0,Greensboro Fire District 1,551,Dibromochloromethane,0.24,0.1,0,ppb,2.4
VT,Greensboro,5820.0,Greensboro Fire District 1,551,Nitrate,1.06,0.14,10,ppm,7.571428571428571
VT,Greensboro,5820.0,Greensboro Fire District 1,551,Radium combined (-226 &amp; -228),0.6,0.05,5,pCi/L,11.999999999999998
VT,Greensboro,5820.0,Greensboro Fire District 1,551,Total trihalomethanes (TTHMs)†,1.41,0.15,80,ppb,9.4
VT,Greensboro,5820.0,Greensboro Fire District 1,551,Chloroform,0.28,0.4,0,ppb,0.7000000000000001
VT,Greensboro,5820.0,Greensboro Fire District 1,551,Ethylbenzene,0.1,300.0,700,ppb,0.0003333333333333334
VT,Greensboro,5820.0,Greensboro Fire District 1,551,Styrene,0.156,0.5,100,ppb,0.312
VT,Greensboro,5820.0,Greensboro Fire District 1,551,Xylenes (total),0.767,1800.0,10000,ppb,0.0004261111111111111
VT,Troy,5820.0,Holbrook Bay Commons,95,Total trihalomethanes (TTHMs)†,0.4,0.15,80,ppb,2.666666666666667
VT,Troy,5820.0,Holbrook Bay Commons,95,Chloroform,0.2,0.4,0,ppb,0.5
VT,Troy,5820.0,Holbrook Bay Commons,95,Manganese,45.0,100.0,0,ppb,0.45
VT,Irasburg,5820.0,Irasburg Fd #1,200,Dibromochloromethane,0.56,0.1,0,ppb,5.6000000000000005
VT,Irasburg,5820.0,Irasburg Fd #1,200,Nitrate,0.621,0.14,10,ppm,4.435714285714285
VT,Irasburg,5820.0,Irasburg Fd #1,200,Total trihalomethanes (TTHMs)†,0.35,0.15,80,ppb,2.3333333333333335
VT,Irasburg,5820.0,Irasburg Fd #1,200,Uranium,1.34,0.43,20,pCi/L,3.116279069767442
VT,Irasburg,5820.0,Irasburg Fd #1,200,Barium,20.0,700.0,2000,ppb,0.02857142857142857
VT,Jay,5820.0,Jay Peak Subdivision II,66,Bromodichloromethane,0.18,0.06,0,ppb,3.0
VT,Jay,5820.0,Jay Peak Subdivision II,66,Dibromochloromethane,0.56,0.1,0,ppb,5.6000000000000005
VT,Jay,5820.0,Jay Peak Subdivision II,66,Manganese,307.4,100.0,0,ppb,3.074
VT,Jay,5820.0,Jay Peak Subdivision II,66,Total trihalomethanes (TTHMs)†,0.967,0.15,80,ppb,6.446666666666666
VT,Jay,5820.0,Jay Peak Subdivision II,66,Bromoform,0.13,0.5,0,ppb,0.26
VT,Jay,5820.0,Jay Peak Subdivision II,66,Nitrate,0.0167,0.14,10,ppm,0.11928571428571427
VT,Jay,5820.0,Jay Peak Subdivision II,66,Toluene,0.1,150.0,1000,ppb,0.0006666666666666668
VT,Jay,5820.0,Jay Peak Water System,6740,Bromodichloromethane,0.456,0.06,0,ppb,7.6000000000000005
VT,Jay,5820.0,Jay Peak Water System,6740,Chromium (hexavalent),0.139,0.02,0,ppb,6.95
VT,Jay,5820.0,Jay Peak Water System,6740,Dibromochloromethane,0.25,0.1,0,ppb,2.5
VT,Jay,5820.0,Jay Peak Water System,6740,Radium combined (-226 &amp; -228),2.13,0.05,5,pCi/L,42.599999999999994
VT,Jay,5820.0,Jay Peak Water System,6740,Total trihalomethanes (TTHMs)†,1.8,0.15,80,ppb,12.0
VT,Jay,5820.0,Jay Peak Water System,6740,Chlorate,26.3,210.0,0,ppb,0.12523809523809523
VT,Jay,5820.0,Jay Peak Water System,6740,Chloroform,0.672,0.4,0,ppb,1.68
VT,Jay,5820.0,Jay Peak Water System,6740,Manganese,27.9,100.0,0,ppb,0.27899999999999997
VT,Jay,5820.0,Jay Peak Water System,6740,Nitrate,0.183,0.14,10,ppm,1.307142857142857
VT,Jay,5820.0,Jay Peak Water System,6740,Strontium,0.11,1500.0,0,ppb,7.333333333333333e-05
VT,Orleans,5820.0,Maple Lane Nursing Home,181,Chloroform,0.25,0.4,0,ppb,0.625
VT,Newport Center,5820.0,Newport Center Water System,330,Arsenic,2.86,0.004,10,ppb,715.0
VT,Newport Center,5820.0,Newport Center Water System,330,Bromodichloromethane,0.183,0.06,0,ppb,3.0500000000000003
VT,Newport Center,5820.0,Newport Center Water System,330,Radium combined (-226 &amp; -228),1.34,0.05,5,pCi/L,26.8
VT,Newport Center,5820.0,Newport Center Water System,330,Total trihalomethanes (TTHMs)†,2.07,0.15,80,ppb,13.799999999999999
VT,Newport Center,5820.0,Newport Center Water System,330,Chloroform,0.2,0.4,0,ppb,0.5
VT,Newport Center,5820.0,Newport Center Water System,330,Dibromochloromethane,0.133,0.1,0,ppb,1.33
VT,Newport Center,5820.0,Newport Center Water System,330,Manganese,22.0,100.0,0,ppb,0.22
VT,Newport Center,5820.0,Newport Center Water System,330,Nitrate,0.0553,0.14,10,ppm,0.39499999999999996
VT,Newport Center,5820.0,Newport Center Water System,330,Toluene,0.1,150.0,1000,ppb,0.0006666666666666668
VT,Newport,5820.0,Newport City Water System,4766,Arsenic,4.0,0.004,10,ppb,1000.0
VT,Newport,5820.0,Newport City Water System,4766,Chloroform,0.0857,0.4,0,ppb,0.21425
VT,North Troy,5820.0,North Troy Water System,860,Nitrate,0.362,0.14,10,ppm,2.5857142857142854
VT,North Troy,5820.0,North Troy Water System,860,Chloroform,0.0857,0.4,0,ppb,0.21425
VT,North Troy,5820.0,North Troy Water System,860,Total trihalomethanes (TTHMs)†,0.12,0.15,80,ppb,0.8
VT,North Troy,5820.0,North Troy Water System,860,Nitrate,0.362,0.14,10,ppm,2.5857142857142854
VT,North Troy,5820.0,North Troy Water System,860,Chloroform,0.0857,0.4,0,ppb,0.21425
VT,North Troy,5820.0,North Troy Water System,860,Total trihalomethanes (TTHMs)†,0.12,0.15,80,ppb,0.8
VT,Orleans,5820.0,Orleans Water System,846,Arsenic,3.0,0.004,10,ppb,750.0
VT,Orleans,5820.0,Orleans Water System,846,Bromodichloromethane,1.49,0.06,0,ppb,24.833333333333336
VT,Orleans,5820.0,Orleans Water System,846,Chloroform,1.27,0.4,0,ppb,3.175
VT,Orleans,5820.0,Orleans Water System,846,Dibromochloromethane,1.2,0.1,0,ppb,11.999999999999998
VT,Orleans,5820.0,Orleans Water System,846,Total trihalomethanes (TTHMs)†,4.7,0.15,80,ppb,31.333333333333336
VT,Orleans,5820.0,Orleans Water System,846,Manganese,86.3,100.0,0,ppb,0.863
VT,Lyndonville,5820.0,Shattuck Hill Mobile Home Park,129,Benzo[a]pyrene*,0.2,0.007,0.2,ppb,28.571428571428573
VT,Lyndonville,5820.0,Shattuck Hill Mobile Home Park,129,Bromodichloromethane,4.63,0.06,0,ppb,77.16666666666667
VT,Lyndonville,5820.0,Shattuck Hill Mobile Home Park,129,Chloroform,11.7,0.4,0,ppb,29.249999999999996
VT,Lyndonville,5820.0,Shattuck Hill Mobile Home Park,129,Dibromochloromethane,2.07,0.1,0,ppb,20.699999999999996
VT,Lyndonville,5820.0,Shattuck Hill Mobile Home Park,129,Dichloroacetic acid,1.85,0.2,0,ppb,9.25
VT,Lyndonville,5820.0,Shattuck Hill Mobile Home Park,129,Haloacetic acids (HAA5)†,4.43,0.1,60,ppb,44.3
VT,Lyndonville,5820.0,Shattuck Hill Mobile Home Park,129,Nitrate*,1.67,0.14,10,ppm,11.928571428571427
VT,Lyndonville,5820.0,Shattuck Hill Mobile Home Park,129,Total trihalomethanes (TTHMs)†,18.6,0.15,80,ppb,124.00000000000001
VT,Lyndonville,5820.0,Shattuck Hill Mobile Home Park,129,Trichloroacetic acid,2.58,0.1,0,ppb,25.8
VT,Lyndonville,5820.0,Shattuck Hill Mobile Home Park,129,Bromoform,0.233,0.5,0,ppb,0.466
VT,Westfield,5820.0,Westfield Fire District 1,120,Bromodichloromethane,0.563,0.06,0,ppb,9.383333333333333
VT,Westfield,5820.0,Westfield Fire District 1,120,Dibromochloromethane,0.7,0.1,0,ppb,6.999999999999999
VT,Westfield,5820.0,Westfield Fire District 1,120,Nitrate,1.16,0.14,10,ppm,8.285714285714285
VT,Westfield,5820.0,Westfield Fire District 1,120,Radium combined (-226 &amp; -228),0.26,0.05,5,pCi/L,5.2
VT,Westfield,5820.0,Westfield Fire District 1,120,Total trihalomethanes (TTHMs)†,1.0,0.15,80,ppb,6.666666666666667
VT,Westfield,5820.0,Westfield Fire District 1,120,Trichloroacetic acid,0.5,0.1,0,ppb,5.0
VT,Westfield,5820.0,Westfield Fire District 1,120,Barium,10.0,700.0,2000,ppb,0.014285714285714285
VT,Westfield,5820.0,Westfield Fire District 1,120,Chloroform,0.138,0.4,0,ppb,0.34500000000000003
VT,Westfield,5820.0,Westfield Fire District 1,120,Manganese,4.14,100.0,0,ppb,0.0414
VT,East Haven,5824.0,Aqua Haven,150,Bromodichloromethane,0.333,0.06,0,ppb,5.550000000000001
VT,East Haven,5824.0,Aqua Haven,150,Dibromochloromethane,0.333,0.1,0,ppb,3.33
VT,East Haven,5824.0,Aqua Haven,150,Total trihalomethanes (TTHMs)†,3.0,0.15,80,ppb,20.0
VT,East Haven,5824.0,Aqua Haven,150,Chloroform,0.333,0.4,0,ppb,0.8325
VT,East Haven,5824.0,Aqua Haven,150,Manganese,16.2,100.0,0,ppb,0.162
VT,Island Pond,5824.0,Brighton Water System,1782,Bromodichloromethane*,0.662,0.06,0,ppb,11.033333333333335
VT,Island Pond,5824.0,Brighton Water System,1782,Dibromochloromethane*,0.576,0.1,0,ppb,5.759999999999999
VT,Island Pond,5824.0,Brighton Water System,1782,Haloacetic acids (HAA5)†,1.74,0.1,60,ppb,17.4
VT,Island Pond,5824.0,Brighton Water System,1782,Haloacetic acids (HAA9)*†,2.77,0.06,0,ppb,46.16666666666667
VT,Island Pond,5824.0,Brighton Water System,1782,Radium combined (-226 &amp; -228)*,0.96,0.05,5,pCi/L,19.2
VT,Island Pond,5824.0,Brighton Water System,1782,Total trihalomethanes (TTHMs)†,10.6,0.15,80,ppb,70.66666666666667
VT,Island Pond,5824.0,Brighton Water System,1782,Chloroform*,0.77,0.4,0,ppb,1.925
VT,Island Pond,5824.0,Brighton Water System,1782,Manganese*,6.9,100.0,0,ppb,0.069
VT,Island Pond,5824.0,Brighton Water System,1782,Strontium*,0.13,1500.0,0,ppb,8.666666666666667e-05
VT,Canaan,5824.0,Canaan Fire District #2,350,Bromodichloromethane,0.85,0.06,0,ppb,14.166666666666666
VT,Canaan,5824.0,Canaan Fire District #2,350,Chloroform,2.38,0.4,0,ppb,5.949999999999999
VT,Canaan,5824.0,Canaan Fire District #2,350,Dibromochloromethane,0.25,0.1,0,ppb,2.5
VT,Canaan,5824.0,Canaan Fire District #2,350,Dichloroacetic acid,1.0,0.2,0,ppb,5.0
VT,Canaan,5824.0,Canaan Fire District #2,350,Radium combined (-226 &amp; -228),0.9,0.05,5,pCi/L,18.0
VT,Canaan,5824.0,Canaan Fire District #2,350,Total trihalomethanes (TTHMs)†,4.0,0.15,80,ppb,26.666666666666668
VT,Canaan,5824.0,Canaan Fire District #2,350,Bromodichloromethane,0.85,0.06,0,ppb,14.166666666666666
VT,Canaan,5824.0,Canaan Fire District #2,350,Chloroform,2.38,0.4,0,ppb,5.949999999999999
VT,Canaan,5824.0,Canaan Fire District #2,350,Dibromochloromethane,0.25,0.1,0,ppb,2.5
VT,Canaan,5824.0,Canaan Fire District #2,350,Dichloroacetic acid,1.0,0.2,0,ppb,5.0
VT,Canaan,5824.0,Canaan Fire District #2,350,Radium combined (-226 &amp; -228),0.9,0.05,5,pCi/L,18.0
VT,Canaan,5824.0,Canaan Fire District #2,350,Total trihalomethanes (TTHMs)†,4.0,0.15,80,ppb,26.666666666666668
VT,Guildhall,5824.0,Guildhall Water System,136,Bromodichloromethane,0.25,0.06,0,ppb,4.166666666666667
VT,Guildhall,5824.0,Guildhall Water System,136,Dibromochloromethane,0.25,0.1,0,ppb,2.5
VT,Guildhall,5824.0,Guildhall Water System,136,Nitrate*,1.28,0.14,10,ppm,9.142857142857142
VT,Guildhall,5824.0,Guildhall Water System,136,Total trihalomethanes (TTHMs)*†,0.404,0.15,80,ppb,2.693333333333334
VT,Guildhall,5824.0,Guildhall Water System,136,Uranium*,1.31,0.43,20,pCi/L,3.046511627906977
VT,Guildhall,5824.0,Guildhall Water System,136,Barium*,21.0,700.0,2000,ppb,0.03
VT,Guildhall,5824.0,Guildhall Water System,136,Manganese*,19.0,100.0,0,ppb,0.19
VT,Guildhall,5824.0,Guildhall Water System,136,Radium combined (-226 &amp; -228)*,0.1,0.05,5,pCi/L,2.0
VT,Lunenburg,5824.0,Lunenburg Fire District 1,250,Chloroform,1.2,0.4,0,ppb,2.9999999999999996
VT,Lunenburg,5824.0,Lunenburg Fire District 1,250,Manganese,47.7,100.0,0,ppb,0.47700000000000004
VT,Lunenburg,5824.0,Lunenburg Fire District 1,250,Nitrate,0.133,0.14,10,ppm,0.95
VT,Lunenburg,5824.0,Lunenburg Fire District 1,250,Chloroform,1.2,0.4,0,ppb,2.9999999999999996
VT,Lunenburg,5824.0,Lunenburg Fire District 1,250,Manganese,47.7,100.0,0,ppb,0.47700000000000004
VT,Lunenburg,5824.0,Lunenburg Fire District 1,250,Nitrate,0.133,0.14,10,ppm,0.95
VT,Belmont,5824.0,North Concord LLC,60,Radium combined (-226 &amp; -228),0.2,0.05,5,pCi/L,4.0
VT,Belmont,5824.0,North Concord LLC,60,Barium,7.67,700.0,2000,ppb,0.010957142857142856
VT,Belmont,5824.0,North Concord LLC,60,MTBE,2.21,13.0,0,ppb,0.16999999999999998
